id,State,District,Name,Address,Contact,Website,government,hospitaltype,advancedfacility,doctors
Delhi\North West\Dr.Reena Janana andSurgical Hospital\Gali No. 2, RajeevColony, Narela , North West, Delhi.Phone-011 27280072\http://www.delhi.gov.in/wps/wcm/connect/7c24a500424d2a1ca82efff85e11a7f2/listofpvth.pdf?MOD=AJPERES&lmod=595582321&CACHEID=7c24a500424d2a1ca82efff85e11a7f161\
Delhi\Central\Dr.Shroff's Charity Eye Hospital\105, 'Surya Kiran', 19,Kasturba Gandhi Marg, Central, Delhi.Phone-011 41510906, 011 41510907, 011 23313383, 011 23326900 , 011 23722014\http://www.shroffeyecentre.com/history.htm\
Delhi\South\Dr.Ved PrakahKohli MedicalCentre\2, Golf Links , South, Delhi.Phone-011 24648409\http://www.delhi.gov.in/wps/wcm/connect/7c24a500424d2a1ca82efff85e11a7f2/listofpvth.pdf?MOD=AJPERES&lmod=595582321&CACHEID=7c24a500424d2a1ca82efff85e11a7f163\Delhi\East\Drishti Eye Care\Shop No.4,Patparganj Road, East, Delhi.\http://www.delhi.gov.in/wps/wcm/connect/7c24a500424d2a1ca82efff85e11a7f2/listofpvth.pdf?MOD=AJPERES&lmod=595582321&CACHEID=7c24a500424d2a1ca82efff85e11a7f164\
Delhi\West\Drishti Eye LaserCentre\B-1/18, MainwaliNagar, RohtakRoad, West, Delhi.Phone-011 25264045,011 25289358\http://www.delhi.gov.in/wps/wcm/connect/7c24a500424d2a1ca82efff85e11a7f2/listofpvth.pdf?MOD=AJPERES&lmod=595582321&CACHEID=7c24a500424d2a1ca82efff85e11a7f165\
Delhi\North West\Dristi The Vision anAdvance Eye CareCentre\47-A, GF, PanaUddayan,Opposite PoliceStation, Narala , North West, Delhi.\http://www.delhi.gov.in/wps/wcm/connect/7c24a500424d2a1ca82efff85e11a7f2/listofpvth.pdf?MOD=AJPERES&lmod=595582321&CACHEID=7c24a500424d2a1ca82efff85e11a7f166\
Delhi\North West\DRS Northex EyeInstitute\C-9/34, F.F., Sector-7, Rohini, North West, Delhi.Phone-011 27054949\http://www.delhi.gov.in/wps/wcm/connect/7c24a500424d2a1ca82efff85e11a7f2/listofpvth.pdf?MOD=AJPERES&lmod=595582321&CACHEID=7c24a500424d2a1ca82efff85e11a7f167\
Delhi\North West\Durga Hospital (P)Ltd.\711, Dr.Mukherjee Nagar, North West, Delhi.Phone-011 45104440, 011 45104447\http://www.delhi.gov.in/wps/wcm/connect/7c24a500424d2a1ca82efff85e11a7f2/listofpvth.pdf?MOD=AJPERES&lmod=595582321&CACHEID=7c24a500424d2a1ca82efff85e11a7f168\
Delhi\South West\Dwarka Hospital\B-91,92, PatelGarden, NearKakrola More, South West, Delhi.Phone-011 25336564\http://www.delhi.gov.in/wps/wcm/connect/7c24a500424d2a1ca82efff85e11a7f2/listofpvth.pdf?MOD=AJPERES&lmod=595582321&CACHEID=7c24a500424d2a1ca82efff85e11a7f169\
Delhi\West\Dwarka Medicare andMaternity Centre\A-95, NanheyPark, UttamNagar, West, Delhi.Phone-011 25336297\http://www.delhi.gov.in/wps/wcm/connect/7c24a500424d2a1ca82efff85e11a7f2/listofpvth.pdf?MOD=AJPERES&lmod=595582321&CACHEID=7c24a500424d2a1ca82efff85e11a7f170\
Delhi\East\Ear Nose Throat andEye Hospital (Unitof Bhairav Hospital)\C-64 A, EastKrishna Nagar, East, Delhi.Phone-011 22444363,011 22216096\http://www.delhi.gov.in/wps/wcm/connect/7c24a500424d2a1ca82efff85e11a7f2/listofpvth.pdf?MOD=AJPERES&lmod=595582321&CACHEID=7c24a500424d2a1ca82efff85e11a7f171\
Delhi\North East\Earth CharitableHospital\468/1, Main 25Foota Road GandhiNagar, NewMustafabad, North East, Delhi.\http://www.delhi.gov.in/wps/wcm/connect/7c24a500424d2a1ca82efff85e11a7f2/listofpvth.pdf?MOD=AJPERES&lmod=595582321&CACHEID=7c24a500424d2a1ca82efff85e11a7f172\
Delhi\Central\East West Medical Centre Pvt.\37 Prithviraj Road, Central, Delhi.Phone-011 24699229, 011 24690429, 011 24698865\http://www.eastwestrescue.com\Delhi\South\East West MedicalCentre Pvt.Ltd.\B-28, (Temp)Greater Kailash, South, Delhi.Phone-011 62293701,011 62293703\http://www.delhi.gov.in/wps/wcm/connect/7c24a500424d2a1ca82efff85e11a7f2/listofpvth.pdf?MOD=AJPERES&lmod=595582321&CACHEID=7c24a500424d2a1ca82efff85e11a7f174\
Delhi\South\Eden Hospital\B-162, East ofKailash, South, Delhi.Phone-011 41624201\http://www.delhi.gov.in/wps/wcm/connect/7c24a500424d2a1ca82efff85e11a7f2/listofpvth.pdf?MOD=AJPERES&lmod=595582321&CACHEID=7c24a500424d2a1ca82efff85e11a7f175\
Delhi\North West\Ekansh NursingHome\122/123, Shahbad,Daulatpur, North West, Delhi.Phone-011 27293643,011 27898655\http://www.delhi.gov.in/wps/wcm/connect/7c24a500424d2a1ca82efff85e11a7f2/listofpvth.pdf?MOD=AJPERES&lmod=595582321&CACHEID=7c24a500424d2a1ca82efff85e11a7f176\
Delhi\South West\Endolite India Limited\A-4, Naraina Industrial Area,Phase 1, South West, Delhi.Phone-011 45689999\http://www.endoliteindia.com/\
Delhi\West\ENT Care Hospital\A-38, Vikas Puri, West, Delhi.Phone-011 25513955\http://www.delhi.gov.in/wps/wcm/connect/7c24a500424d2a1ca82efff85e11a7f2/listofpvth.pdf?MOD=AJPERES&lmod=595582321&CACHEID=7c24a500424d2a1ca82efff85e11a7f177\
Delhi\North\ESI Dispensary, Azad Pur\C-2/35, Model Town-III,Azadpur, North, Delhi.Phone-011 27242791\http://www.esic.nic.in/Delhi-dispensary.php\
Delhi\North West\ESI Dispensary, Badli Extension\A-79, Badli Extension,Outer Ring Road, North West, Delhi.\http://www.esic.nic.in/Delhi-dispensary.php\
Delhi\South West\ESI Dispensary, Dwarka\Opposite Shruti Apartment,Plot No. 22, Behind Vardhman Plaza, Dwarka, Sector-7, South West, Delhi.Phone-011 25088415\http://www.esic.nic.in/Delhi-dispensary.php\
Delhi\South West\ESI Dispensary, Factory Road\Factory road, Opposite D.T.C. Depot, Sarojini Nagar, South West, Delhi.Phone-011 24671333\http://www.esic.nic.in/Delhi-dispensary.php\
Delhi\North West\ESI Dispensary, Inderlok\New Masjid, Inderlok, North West, Delhi.Phone- 011 23657807\http://www.esic.nic.in/Delhi-dispensary.php\Delhi\South\ESI Dispensary, Jangpura\Opposite Railway Crossing,(Near Eros Cinema), Jangpura, South, Delhi.Phone- 011 24312832\http://www.esic.nic.in/Delhi-dispensary.php\
Delhi\West\ESI Dispensary, Jawala Puri\Resettlement Colony,Phase-4, Jawala Puri, West, Delhi.Phone-011 25267204\http://www.esic.nic.in/Delhi-dispensary.php\
Delhi\South\ESI Dispensary, Kalkaji\G-Block, Opposite CGHS Dispensary, Kalkaji, South, Delhi.Phone-011 26430583\http://www.esic.nic.in/Delhi-dispensary.php\
Delhi\West\ESI Dispensary, Karampura\I Block, Karampura , West, Delhi.Phone- 011 25101314\http://www.esic.nic.in/Delhi-dispensary.php\
Delhi\West\ESI Dispensary, Madipur\Pocket-3, Paschim Puri,Madipur, West, Delhi.Phone-011 25213796\http://www.esic.nic.in/Delhi-dispensary.php\
Delhi\North West\ESI Dispensary, Mangolpuri\O-Block, Mangolpuri, North West, Delhi.Phone-011 27923274\http://www.esic.nic.in/Delhi-dispensary.php\
Delhi\West\ESI Dispensary, Maya Puri Phase- I\B-309, Industrial AreaMayapuri, West, Delhi.Phone- 011 28114516\http://www.esic.nic.in/Delhi-dispensary.php\
Delhi\West\ESI Dispensary, Maya Puri Phase- II\22, Facility area, Near Punjab and Sindh Bank, Mayapuri, Phase-II, West, Delhi.Phone-011 28112417\http://www.esic.nic.in/Delhi-dispensary.php\
Delhi\East\ESI Dispensary, Mayur Vihar\MIG Flats, 183A, B, 184A,BMayur Vihar, East, Delhi.Phone-011 22751272\http://www.esic.nic.in/Delhi-dispensary.php\
Delhi\South West\ESI Dispensary, Mehrauli\Tigri, Mehrauli, South West, Delhi.Phone-011 26643190\http://www.esic.nic.in/Delhi-dispensary.php\Delhi\Central\ESI Dispensary, Mori Gate\Near Tis Hazari, Opposite Mori Gate, Central, Delhi.Phone-011 23974744\http://www.esic.nic.in/Delhi-dispensary.php\
Delhi\South West\ESI Dispensary, Najafgarh\Thana Road, Najafgarh, South West, Delhi.Phone-011 25012143\http://www.esic.nic.in/Delhi-dispensary.php\
Delhi\East\ESI Dispensary, Nand Nagri\Nand Nagri, Near DTC Depot, East, Delhi.Phone-011 22591935\http://www.esic.nic.in/Delhi-dispensary.php\
Delhi\South West\ESI Dispensary, Naraina Industrial Area\Near Moti Nagar Police Station,Naraina Industrial Area, South West, Delhi.Phone-011 25102949\http://www.esic.nic.in/Delhi-dispensary.php\
Delhi\North West\ESI Dispensary, Narela\House No. 70, Panna Udyan,Railway Road, Narela, North West, Delhi.Phone-011 27285840\http://www.esic.nic.in/Delhi-dispensary.php\
Delhi\South\ESI Dispensary, Okhla\Okhla Industrial Area,Modi Mills, Okhla, South, Delhi.Phone-011 26929048\http://www.esic.nic.in/Delhi-dispensary.php\
Delhi\South\ESI Dispensary, Okhla Phase-I\DSIDC Sheds Okhla Industrial Area, South, Delhi.Phone-011 26813134\http://www.esic.nic.in/Delhi-dispensary.php\
Delhi\Central\ESI Dispensary, Pahar Ganj\Gurudwara Street, Chuna Mandi, Pahar Ganj, Central, Delhi.Phone- 011 23580679\http://www.esic.nic.in/Delhi-dispensary.php\
Delhi\West\ESI Dispensary, Raghubir Nagar\Tagore Garden Extn.Near Holy Child School, West, Delhi.Phone-011 25438441\http://www.esic.nic.in/Delhi-dispensary.php\
Delhi\North West\ESI Dispensary, Rohini-V\Pocket B-9, Sector-V, Rohini, North West, Delhi.Phone-011 27042878\http://www.esic.nic.in/Delhi-dispensary.php\Delhi\Central\Ahuja NursingHome\16/1, East PatelNagar, Central, Delhi.Phone-011 25194746,011 41440005\http://www.delhi.gov.in/wps/wcm/connect/7c24a500424d2a1ca82efff85e11a7f2/listofpvth.pdf?MOD=AJPERES&lmod=595582321&CACHEID=7c24a500424d2a1ca82efff85e11a7f9\
Delhi\South West\AIIMS\Ansari Nagar, Aurobindo Marg, South West, Delhi.Phone- 011 26588500, 011 26588700, 011 26589900\http://www.aiims.edu\
Delhi\South\Akash ArogyaMandir\90/43, MalviyaNagar, South, Delhi.Phone-011 41830822\http://www.delhi.gov.in/wps/wcm/connect/7c24a500424d2a1ca82efff85e11a7f2/listofpvth.pdf?MOD=AJPERES&lmod=595582321&CACHEID=7c24a500424d2a1ca82efff85e11a7f10\
Delhi\West\Akshika Urology andLaproscopy Centre\C-5 B/14 A,Janakpuri, West, Delhi.Phone-011 45502262\http://www.delhi.gov.in/wps/wcm/connect/7c24a500424d2a1ca82efff85e11a7f2/listofpvth.pdf?MOD=AJPERES&lmod=595582321&CACHEID=7c24a500424d2a1ca82efff85e11a7f11\
Delhi\South\All India PryerFellowship MissionHospital\Khasara No 175,Hospital road,Village, Shahurpur,Mehrauli, South, Delhi.Phone-011 26653384\http://www.delhi.gov.in/wps/wcm/connect/7c24a500424d2a1ca82efff85e11a7f2/listofpvth.pdf?MOD=AJPERES&lmod=595582321&CACHEID=7c24a500424d2a1ca82efff85e11a7f12\
Delhi\South\AlsifaMultispecialityHosptial\D-337, DawatNagar, JamiaNagar, Okhla , South, Delhi.Phone-011 29947828\http://www.delhi.gov.in/wps/wcm/connect/7c24a500424d2a1ca82efff85e11a7f2/listofpvth.pdf?MOD=AJPERES&lmod=595582321&CACHEID=7c24a500424d2a1ca82efff85e11a7f13\
Delhi\West\Aman Hospital\BF-6, TagoreGarden, West, Delhi.Phone-011 25411114,011 25166665\http://www.delhi.gov.in/wps/wcm/connect/7c24a500424d2a1ca82efff85e11a7f2/listofpvth.pdf?MOD=AJPERES&lmod=595582321&CACHEID=7c24a500424d2a1ca82efff85e11a7f14\
Delhi\South\Aman MedicalCentre\1061/7, Dargahstreet, Mehrauli, South, Delhi.Phone-011 26645113\http://www.delhi.gov.in/wps/wcm/connect/7c24a500424d2a1ca82efff85e11a7f2/listofpvth.pdf?MOD=AJPERES&lmod=595582321&CACHEID=7c24a500424d2a1ca82efff85e11a7f15\
Delhi\North East\Amar Eye Centre\B-28, MohanPark, Navin Shahadra, North East, Delhi.Phone-011 22322071,011 22323920\http://www.delhi.gov.in/wps/wcm/connect/7c24a500424d2a1ca82efff85e11a7f2/listofpvth.pdf?MOD=AJPERES&lmod=595582321&CACHEID=7c24a500424d2a1ca82efff85e11a7f16\
Delhi\West\Amar Leela Hospital Pvt. Ltd.\B-1/6 Janak Puri, Main Najafgarh Road, West, Delhi.Phone-011 25530838, 011 25537965,011 25537966\http://www.amarleela.com\Delhi\South\Sri Krishna Hospital\Plot No. 23-24,Main MatialaRoad, South, Delhi.Phone-011 25334708011 25334707\http://www.delhi.gov.in/wps/wcm/connect/DoIT_Health/health/our+services/list+of+registered+private+nursing+homes+or+hospitals+in+delhi\
Delhi\South West\Sri Sai Hospital\B-168, Indra park, South West, Delhi.\http://www.delhi.gov.in/wps/wcm/connect/DoIT_Health/health/our+services/list+of+registered+private+nursing+homes+or+hospitals+in+delhi\
Delhi\North\St. Stephen’sHospital\Tis Hazari, North, Delhi.Phone-011 23966021, 011 2723966021 011 23977930, 011 23957977, 011 23983573,011 23983574, 011 23983580, 011 23982978 ,011 23958005\http://www.ststephenshospital.org/\
Delhi\North\St. Stephens Hospital\Railway Colony, Tis Hazari, North, Delhi.Phone-011 23966021, 011 23966022, 011 23966023\http://www.ststephenshospital.org\
Delhi\South\St.Marey MedicalCentre\Aya Nagar, Phase-6, Bandhu Road, South, Delhi.Phone-011 20913530\http://www.delhi.gov.in/wps/wcm/connect/DoIT_Health/health/our+services/list+of+registered+private+nursing+homes+or+hospitals+in+delhi\
Delhi\Central\Sucheta Kriplani Hospital\C-604, Opp Shivaji Stadium Bus Terminal, Shaheed Bhagat Singh Marg, Connaught Place , Central, Delhi.Phone-011 23408100, 011 23363778, 011 23363788, 011 23363728\http://www.lhmc.in/sk_administration.asp\
Delhi\North West\Sudersan Hospital\116, G-Block,Punjabi Colony, Narela, North West, Delhi.\http://www.delhi.gov.in/wps/wcm/connect/DoIT_Health/health/our+services/list+of+registered+private+nursing+homes+or+hospitals+in+delhi\
Delhi\North East\Sugandha Hospital\1/E/2/7A, EastBabarpur, Shahdra, North East, Delhi.Phone-011 22820430\http://www.delhi.gov.in/wps/wcm/connect/DoIT_Health/health/our+services/list+of+registered+private+nursing+homes+or+hospitals+in+delhi\
Delhi\South\Sujan MohinderSingh MemorialNursing Home\1 CommunityCentre, NewFriends Colony, South, Delhi.Phone-011 26317330 ,011 26836747\http://www.delhi.gov.in/wps/wcm/connect/DoIT_Health/health/our+services/list+of+registered+private+nursing+homes+or+hospitals+in+delhi\
Delhi\South\Sukhda Hospital\R-Block, LocalShopping Centre,Greater Kailash-I, South, Delhi.Phone-011 26416440 ,011 26423073\http://www.delhi.gov.in/wps/wcm/connect/DoIT_Health/health/our+services/list+of+registered+private+nursing+homes+or+hospitals+in+delhi\Delhi\New Delhi\Eye-Q Super Specialty Eye Hospital, South Extension Part-2\P-13, South Extension Part- 2, , New Delhi, Delhi.Phone-011 26257803\http://www.eyeqindia.com/\
Delhi\North West\Family Hospital(Pvt.) Ltd.\B-865, Avantika,Sector 1, Rohini, North West, Delhi.Phone-011 27517874\http://www.delhi.gov.in/wps/wcm/connect/7c24a500424d2a1ca82efff85e11a7f2/listofpvth.pdf?MOD=AJPERES&lmod=595582321&CACHEID=7c24a500424d2a1ca82efff85e11a7f181\
Delhi\West\Family Hospital(Unit of FamilyHospital (p) Ltd)\WZ-264, NewSahib Pura, TilakNagar, West, Delhi.Phone-011 25435886 ,011 25414885\http://www.delhi.gov.in/wps/wcm/connect/7c24a500424d2a1ca82efff85e11a7f2/listofpvth.pdf?MOD=AJPERES&lmod=595582321&CACHEID=7c24a500424d2a1ca82efff85e11a7f182\
Delhi\South\Family Welfare Clinic, Palika Maternity Hospital\Palika Maternity Hospital, Lodi Colony, Near Mehar Chand Maket , South, Delhi.Phone-011 24621417, 011 24654903, 011 24654904, 011 24611633, 011 24654902 (Casualty), 011 24610279\https://www.ndmc.gov.in/Departments/Medical%20Services/Dept_Health_maternity.aspx\
Delhi\New Delhi\Family Welfare Clinic,Charak Palika Hospital\Charak Palika Hospital, Moti Bagh, Landmark: Near begum zaidi market , New Delhi, Delhi.Phone-011 26117879, 011 24671901, 011 24671109, 011 24156232, 011 24679711\https://www.ndmc.gov.in/Departments/Medical%20Services/Dept_Health_maternity.aspx\
Delhi\South\Faraz Hospital\F-167/2, ShaheenBagh, Jamia Nagar,Okhla , South, Delhi.Phone-011 65101972\http://www.delhi.gov.in/wps/wcm/connect/7c24a500424d2a1ca82efff85e11a7f2/listofpvth.pdf?MOD=AJPERES&lmod=595582321&CACHEID=7c24a500424d2a1ca82efff85e11a7f183\
Delhi\West\Flex Medical Centre\B-1/4, PaschimVihar, West, Delhi.Phone-011 25288801, 011 25288802\http://www.delhi.gov.in/wps/wcm/connect/7c24a500424d2a1ca82efff85e11a7f2/listofpvth.pdf?MOD=AJPERES&lmod=595582321&CACHEID=7c24a500424d2a1ca82efff85e11a7f184\
Delhi\South\Foresight Eye Clinic\H.NO 106, rps,Dda Flats, SheikhSarai, South, Delhi.Phone-011 26017626\http://www.delhi.gov.in/wps/wcm/connect/7c24a500424d2a1ca82efff85e11a7f2/listofpvth.pdf?MOD=AJPERES&lmod=595582321&CACHEID=7c24a500424d2a1ca82efff85e11a7f185\
Delhi\South\Fortis C-DOC\B-16, Chirag Enclave, Opposite Nehru Place, South, Delhi.Phone-011 49101222\http://www.fortishealthcare.com/\
Delhi\South\Fortis Escorts Heart Institute\Okhla Road, New Friends Colony, South, Delhi.Phone-011 47135000\http://www.fortisescorts.in/\Delhi\South West\Fortis Flt. Lt. Rajan Dhall Hospital\Sector B, Pocket 1, Aruna Asaf Ali Marg, Vasant Kunj, South West, Delhi.Phone-011 42776222\http://www.fortishealthcare.com/\
Delhi\North West\Fortis Hospital\A Block, Shalimar Bagh, North West, Delhi.Phone-011 45302222 011 45302200\http://www.fortishealthcare.com/\
Delhi\Central\Fortis Jessa Ram Hospital\W.E.A. Karol Bagh , Central, Delhi.Phone-011 45013222\\
Delhi\South\Fortis La Femme\S-549, Near Don Bosco School, Greater Kailash - II, South, Delhi.Phone-011 40579400, 011 40579400\http://www.fortishealthcare.com/india/beds_rooms.php?hospital_id=11\
Delhi\North\Fortis La Femme\2 Institutional Area, Sector-III, Rohini, North, Delhi.Phone- 011 47600555, Extension: 127, 311\http://www.jghDelhi.net\
Delhi\North\Friends Hospital\339, Uday MangalBhawan, Haiderpur,Salimar bagh, North, Delhi.Phone-011 65933776\http://www.delhi.gov.in/wps/wcm/connect/7c24a500424d2a1ca82efff85e11a7f2/listofpvth.pdf?MOD=AJPERES&lmod=595582321&CACHEID=7c24a500424d2a1ca82efff85e11a7f186\
Delhi\Central\G B Pant Hospital\Delhi Gate, Jawahar Lal Nehru Marg, Asaf Ali Road, Central, Delhi.Phone- 011 23234242, 011 23233001,011 23238109, 011 23233945\http://gbpant.Delhigovt.nic.in/\
Delhi\East\G.S.Eye Research andCare Centre\31,Vikas Marg,Defence Enclave, East, Delhi.Phone-011 22242325 ,011 22243788\http://www.delhi.gov.in/wps/wcm/connect/7c24a500424d2a1ca82efff85e11a7f2/listofpvth.pdf?MOD=AJPERES&lmod=595582321&CACHEID=7c24a500424d2a1ca82efff85e11a7f187\
Delhi\West\Gambhir Hospital\K-74, RajouriGarden, West, Delhi.Phone-011 25414120,011 25437415\http://www.delhi.gov.in/wps/wcm/connect/7c24a500424d2a1ca82efff85e11a7f2/listofpvth.pdf?MOD=AJPERES&lmod=595582321&CACHEID=7c24a500424d2a1ca82efff85e11a7f188\
Delhi\West\Gandhi NursingHome\C-50 and 51, OmVihar, UttamVihar, West, Delhi.Phone-011 25335099,011 25335135\http://www.delhi.gov.in/wps/wcm/connect/7c24a500424d2a1ca82efff85e11a7f2/listofpvth.pdf?MOD=AJPERES&lmod=595582321&CACHEID=7c24a500424d2a1ca82efff85e11a7f189\Delhi\South West\Gee Bee NursingHome\A-1017, PalamExtension, Sector -7Dwarka , South West, Delhi.Phone-011 25071071\http://www.delhi.gov.in/wps/wcm/connect/7c24a500424d2a1ca82efff85e11a7f2/listofpvth.pdf?MOD=AJPERES&lmod=595582321&CACHEID=7c24a500424d2a1ca82efff85e11a7f199\
Delhi\Central\Geetanjali MedicalCentre\6426/8, AryaSamaj Road, DevNagar, Karol Bagh, AryaSamaj Road, DevNagar, Central, Delhi.Phone-011 25733895,011 30903441\http://www.delhi.gov.in/wps/wcm/connect/7c24a500424d2a1ca82efff85e11a7f2/listofpvth.pdf?MOD=AJPERES&lmod=595582321&CACHEID=7c24a500424d2a1ca82efff85e11a7f200\
Delhi\Central\Genesis Hospital Pvt . Ltd\C-1/130 , Block C1, Janak Puri, Central, Delhi.Phone-011 45259999, 011 45259900,011 45259921,011 45259922, 011 45259923\http://www.Genesishospicare.com\
Delhi\South West\Ghai Medical andGynae Centre\B-1/404, Jankpuri , South West, Delhi.Phone-011 25524546,011 25524518\http://www.delhi.gov.in/wps/wcm/connect/7c24a500424d2a1ca82efff85e11a7f2/listofpvth.pdf?MOD=AJPERES&lmod=595582321&CACHEID=7c24a500424d2a1ca82efff85e11a7f201\
Delhi\West\Girgla Clinic\WZ-65 A, PratapNagar, Jail Road, West, Delhi.Phone-011 28126687\http://www.delhi.gov.in/wps/wcm/connect/7c24a500424d2a1ca82efff85e11a7f2/listofpvth.pdf?MOD=AJPERES&lmod=595582321&CACHEID=7c24a500424d2a1ca82efff85e11a7f202\
Delhi\South West\Global Hospital\RZF-905/22RjNagar, Part-II, PalamColony, South West, Delhi.Phone-011 65241008\http://www.delhi.gov.in/wps/wcm/connect/7c24a500424d2a1ca82efff85e11a7f2/listofpvth.pdf?MOD=AJPERES&lmod=595582321&CACHEID=7c24a500424d2a1ca82efff85e11a7f203\
Delhi\West\Global KalraHospital and HeartCentre\A 33,34 MilapNagar, UttamNagar, West, Delhi.Phone-011 28565725\http://www.delhi.gov.in/wps/wcm/connect/7c24a500424d2a1ca82efff85e11a7f2/listofpvth.pdf?MOD=AJPERES&lmod=595582321&CACHEID=7c24a500424d2a1ca82efff85e11a7f204\
Delhi\South West\GobhaniaNirogdham\708/709, Dr.Yograj VermaMarg, GaushalaRoad, South West, Delhi.Phone-011 25011720, 011 25012720\http://www.delhi.gov.in/wps/wcm/connect/7c24a500424d2a1ca82efff85e11a7f2/listofpvth.pdf?MOD=AJPERES&lmod=595582321&CACHEID=7c24a500424d2a1ca82efff85e11a7f205\
Delhi\West\Goel Health Centre\B-151, Rama Park, UttamNagar, West, Delhi.Phone-011 25352650\http://www.delhi.gov.in/wps/wcm/connect/7c24a500424d2a1ca82efff85e11a7f2/listofpvth.pdf?MOD=AJPERES&lmod=595582321&CACHEID=7c24a500424d2a1ca82efff85e11a7f206\
Delhi\North West\Goel hospital\A-2/170-172,Sector-17, Rohini , North West, Delhi.Phone-011 27290867\http://www.delhi.gov.in/wps/wcm/connect/7c24a500424d2a1ca82efff85e11a7f2/listofpvth.pdf?MOD=AJPERES&lmod=595582321&CACHEID=7c24a500424d2a1ca82efff85e11a7f207\Delhi\Central\Gole Market School Health Services Zone – II\Gole Market, Central, Delhi.\https://www.ndmc.gov.in/Departments/Medical%20Services/Dept_Health_maternity.aspx\
Delhi\New Delhi\Golf Links School Health Services Zone – III\Golf Links, New Delhi, Delhi.\https://www.ndmc.gov.in/Departments/Medical%20Services/Dept_Health_maternity.aspx\
Delhi\East\Goswami MedicalCentre and NursingHome\53, Opp. YamunaSports Complex,I.P.Extension , East, Delhi.Phone-011 22144011,011 22154012\http://www.delhi.gov.in/wps/wcm/connect/7c24a500424d2a1ca82efff85e11a7f2/listofpvth.pdf?MOD=AJPERES&lmod=595582321&CACHEID=7c24a500424d2a1ca82efff85e11a7f209\
Delhi\North\Gouri Hospital\30, Malka Ganj Road, Jawahar Nagar, North, Delhi.Phone-011 47164716, 011 47164713, 011 47164700\http://gourihospital.com/\
Delhi\Central\Goyal Eye Institute\1/10 East Patel Nagar,Opp. Metro Pillar No. 176, Central, Delhi.Phone-011 25881259, 011 25888145,\http://goyaleyeinstitute.com/\
Delhi\West\Goyal Hospital\A-51, Udai Vihar,Main ChanderVihar Market Road,Nangloi , West, Delhi.\http://www.delhi.gov.in/wps/wcm/connect/7c24a500424d2a1ca82efff85e11a7f2/listofpvth.pdf?MOD=AJPERES&lmod=595582321&CACHEID=7c24a500424d2a1ca82efff85e11a7f210\
Delhi\East\Goyal Hospital andUrology Centre\E-4/8, LajpatChowk, KrishnaNagar, East, Delhi.Phone-011 22099852\http://www.delhi.gov.in/wps/wcm/connect/7c24a500424d2a1ca82efff85e11a7f2/listofpvth.pdf?MOD=AJPERES&lmod=595582321&CACHEID=7c24a500424d2a1ca82efff85e11a7f211\
Delhi\South West\Goyal MedicalCentre\E-2/8, VasantVihar, South West, Delhi.Phone-011 26143855\http://www.delhi.gov.in/wps/wcm/connect/7c24a500424d2a1ca82efff85e11a7f2/listofpvth.pdf?MOD=AJPERES&lmod=595582321&CACHEID=7c24a500424d2a1ca82efff85e11a7f212\
Delhi\East\Goyal's MedicalCentre\3/51, Ram Gali, VishwasNagar, East, Delhi.\http://www.delhi.gov.in/wps/wcm/connect/7c24a500424d2a1ca82efff85e11a7f2/listofpvth.pdf?MOD=AJPERES&lmod=595582321&CACHEID=7c24a500424d2a1ca82efff85e11a7f213\
Delhi\North\Grover MedicalCentre\5091, Houz Quazi Sirkiwalan, North, Delhi.Phone-011 23215625,011 23213209\http://www.delhi.gov.in/wps/wcm/connect/7c24a500424d2a1ca82efff85e11a7f2/listofpvth.pdf?MOD=AJPERES&lmod=595582321&CACHEID=7c24a500424d2a1ca82efff85e11a7f214\Delhi\North West\GTK Hospital\A-11, Sarai PipalThala, North West, Delhi.Phone-011 27677494\http://www.delhi.gov.in/wps/wcm/connect/7c24a500424d2a1ca82efff85e11a7f2/listofpvth.pdf?MOD=AJPERES&lmod=595582321&CACHEID=7c24a500424d2a1ca82efff85e11a7f215\
Delhi\South\Gujarmal ModiHospital\MandirMarg, Saket, South, Delhi.Phone-011 26852112\http://www.delhi.gov.in/wps/wcm/connect/7c24a500424d2a1ca82efff85e11a7f2/listofpvth.pdf?MOD=AJPERES&lmod=595582321&CACHEID=7c24a500424d2a1ca82efff85e11a7f216\
Delhi\West\Gujral MedicalCentre\22/24, Tilak Nagar , West, Delhi.Phone-011 25423790\http://www.delhi.gov.in/wps/wcm/connect/7c24a500424d2a1ca82efff85e11a7f2/listofpvth.pdf?MOD=AJPERES&lmod=595582321&CACHEID=7c24a500424d2a1ca82efff85e11a7f217\
Delhi\North West\Gupta Hospital\A-56, MainKanjhawala Road,Budh Vihar Phase I, North West, Delhi.Phone-011 27536637,011 27531905\http://www.delhi.gov.in/wps/wcm/connect/7c24a500424d2a1ca82efff85e11a7f2/listofpvth.pdf?MOD=AJPERES&lmod=595582321&CACHEID=7c24a500424d2a1ca82efff85e11a7f218\
Delhi\West\Gupta MaternityHome\C-490, VikasPuri , West, Delhi.Phone-011 25507588\http://www.delhi.gov.in/wps/wcm/connect/7c24a500424d2a1ca82efff85e11a7f2/listofpvth.pdf?MOD=AJPERES&lmod=595582321&CACHEID=7c24a500424d2a1ca82efff85e11a7f219\
Delhi\West\Gupta MedicalCentre\B-5/7, PaschimVihar, West, Delhi.Phone-011 25262487\http://www.delhi.gov.in/wps/wcm/connect/7c24a500424d2a1ca82efff85e11a7f2/listofpvth.pdf?MOD=AJPERES&lmod=595582321&CACHEID=7c24a500424d2a1ca82efff85e11a7f220\
Delhi\East\Gupta MultiSpeciality Hospital\B-20, Vivek Vihar , East, Delhi.\http://www.delhi.gov.in/wps/wcm/connect/7c24a500424d2a1ca82efff85e11a7f2/listofpvth.pdf?MOD=AJPERES&lmod=595582321&CACHEID=7c24a500424d2a1ca82efff85e11a7f221\
Delhi\North West\Gupta NursingHome\Mata Ki Gali,Dhandhu Market,Bawana, North West, Delhi.Phone-011 27752918\http://www.delhi.gov.in/wps/wcm/connect/7c24a500424d2a1ca82efff85e11a7f2/listofpvth.pdf?MOD=AJPERES&lmod=595582321&CACHEID=7c24a500424d2a1ca82efff85e11a7f222\
Delhi\North West\Gupta NursingHome\BN-56(East), ShalimarBagh, North West, Delhi.Phone-011 27495800,011 27496800\http://www.delhi.gov.in/wps/wcm/connect/7c24a500424d2a1ca82efff85e11a7f2/listofpvth.pdf?MOD=AJPERES&lmod=595582321&CACHEID=7c24a500424d2a1ca82efff85e11a7f223\
Delhi\West\Gupta Ultrasound and Heart Care Centre\A-4/22 Paschim Vihar, West, Delhi.Phone-011 45452222, 011 25272121,011 25277171\http://www.guptaheartcare.com/\Delhi\West\Gupta Ultrasound andHeart Care Centre\A-4/22, PaschimVihar, West, Delhi.Phone-011 45452222\http://www.delhi.gov.in/wps/wcm/connect/7c24a500424d2a1ca82efff85e11a7f2/listofpvth.pdf?MOD=AJPERES&lmod=595582321&CACHEID=7c24a500424d2a1ca82efff85e11a7f224\
Delhi\West\Guru Gobind Singh Hospital\27, Raghubir Nagar, Rajouri Garden,, West, Delhi.Phone- 011 25988532, 011 25984549,011 25988548\http://www.Delhi.gov.in/wps/wcm/connect/doit_health/Health/Home/Hospitals/Guru+Gobind+Singh+Hospital/\
Delhi\North\Guru Gobind SinghHospital\A-2 Block, WestSant Nagar,Burari , North, Delhi.Phone-011 27618821\http://www.delhi.gov.in/wps/wcm/connect/7c24a500424d2a1ca82efff85e11a7f2/listofpvth.pdf?MOD=AJPERES&lmod=595582321&CACHEID=7c24a500424d2a1ca82efff85e11a7f225\
Delhi\South\Guru HarkishanHospital\Guru Dwara BalaSahib Complex,Ring Road,Sarai KaleKhan, South, Delhi.Phone-011 30964032,011 30944042, 011 30944043\http://www.delhi.gov.in/wps/wcm/connect/7c24a500424d2a1ca82efff85e11a7f2/listofpvth.pdf?MOD=AJPERES&lmod=595582321&CACHEID=7c24a500424d2a1ca82efff85e11a7f226\
Delhi\Central\Guru Nanak Eye Center\Near Ram Lila Grounds, Maharaja Ranjit Singh Marg, Central, Delhi.Phone-011 23234612\http://www.gnec.Delhigovt.nic.in/\
Delhi\East\Guru Teg Bahadur Hospital\Department of Obstetricsand Gynaecology, Dilshad Garden, East, Delhi.Phone-011 22586262, 011 22588383, 011 22692222\http://gtbh.Delhigovt.nic.in/\
Delhi\South\Hakim Abdul Hadeem Centenary Hospital\Zamia Hamdard,Hamdard Nagar, South, Delhi.Phone-011 26059669\http://www.delhi.gov.in/wps/wcm/connect/7c24a500424d2a1ca82efff85e11a7f2/listofpvth.pdf?MOD=AJPERES&lmod=595582321&CACHEID=7c24a500424d2a1ca82efff85e11a7f227\
Delhi\South\Haleem MedicalCentre\Shaleen Bagh,Jasola, South, Delhi.Phone-011 28949854\http://www.delhi.gov.in/wps/wcm/connect/7c24a500424d2a1ca82efff85e11a7f2/listofpvth.pdf?MOD=AJPERES&lmod=595582321&CACHEID=7c24a500424d2a1ca82efff85e11a7f228\
Delhi\South\Hamdard Medical College\Hamdard Nagar, South, Delhi.Phone-011 64788202\http://www.himsr.org\
Delhi\Central\Hameedia MedicalCentre\1992-93,Quasimjan Street,Near Haji TentHouse,Lal Kuan , Central, Delhi.\http://www.delhi.gov.in/wps/wcm/connect/7c24a500424d2a1ca82efff85e11a7f2/listofpvth.pdf?MOD=AJPERES&lmod=595582321&CACHEID=7c24a500424d2a1ca82efff85e11a7f229\Delhi\West\Handa Nursing Home\57, Najafgarh Road, Raja Garden, West, Delhi.Phone-011 25433342, 011 25415726, 011 25162299,011 45606000\http://handanursinghome.com/\
Delhi\West\Handa Stone Clinic\127, Raja Garden , West, Delhi.Phone-011 25433342,011 25161133\http://www.delhi.gov.in/wps/wcm/connect/7c24a500424d2a1ca82efff85e11a7f2/listofpvth.pdf?MOD=AJPERES&lmod=595582321&CACHEID=7c24a500424d2a1ca82efff85e11a7f230\
Delhi\North\Hans CharitableHospital\149, Dr.Mukherjee Nagar(West), North, Delhi.Phone- 011 27601959,011 27601109\http://www.delhi.gov.in/wps/wcm/connect/7c24a500424d2a1ca82efff85e11a7f2/listofpvth.pdf?MOD=AJPERES&lmod=595582321&CACHEID=7c24a500424d2a1ca82efff85e11a7f231\
Delhi\West\Hardik Hospital\29 C, Budh Bazar,Hastsal,VikasNagar, West, Delhi.Phone-011 32045600\http://www.delhi.gov.in/wps/wcm/connect/7c24a500424d2a1ca82efff85e11a7f2/listofpvth.pdf?MOD=AJPERES&lmod=595582321&CACHEID=7c24a500424d2a1ca82efff85e11a7f232\
Delhi\West\Hari Eye and DentalCentre\33, RajouriGarden, NajafgarhRoad, West, Delhi.Phone-011 259395113\http://www.delhi.gov.in/wps/wcm/connect/7c24a500424d2a1ca82efff85e11a7f2/listofpvth.pdf?MOD=AJPERES&lmod=595582321&CACHEID=7c24a500424d2a1ca82efff85e11a7f233\
Delhi\North West\Hari Hospital\74 A, Hari Enclave, Sultanpuri, North West, Delhi.Phone-011 25182362\http://www.delhi.gov.in/wps/wcm/connect/7c24a500424d2a1ca82efff85e11a7f2/listofpvth.pdf?MOD=AJPERES&lmod=595582321&CACHEID=7c24a500424d2a1ca82efff85e11a7f234\
Delhi\South West\Healing TouchHospital\7/ 5 and 7/ 6, OppositeLaxman PublicSchool, Sarva PriyaVihar, South West, Delhi.Phone-011 26852583\http://www.delhi.gov.in/wps/wcm/connect/7c24a500424d2a1ca82efff85e11a7f2/listofpvth.pdf?MOD=AJPERES&lmod=595582321&CACHEID=7c24a500424d2a1ca82efff85e11a7f235\
Delhi\East\Health Centre Cum Maternity Hospital\Kanti Nagar, East, Delhi.Phone- 011 22099942,011 22097399\http://www.Delhi.gov.in/wps/wcm/connect/doit_health/Health/Home/Hospitals/Health+Centre+cum+Maternity+Hospital\
Delhi\South\Health PointHospital\H-Block, RatiaMarg, SangamVihar, South, Delhi.Phone-011 20647000\http://www.delhi.gov.in/wps/wcm/connect/7c24a500424d2a1ca82efff85e11a7f2/listofpvth.pdf?MOD=AJPERES&lmod=595582321&CACHEID=7c24a500424d2a1ca82efff85e11a7f236\
Delhi\West\Hemraj Jain Hospital\N. H 1, C-1 Block, Janakpuri, West, Delhi.Phone-011 49111444, 011 49111400, 011 27020748\http://www.cygnusmedicare.com/#\Delhi\West\Hemraj JainHospital\C-1, N.H.I Block,Janakpuri, West, Delhi.Phone-011 25551507,011 25511360\http://www.delhi.gov.in/wps/wcm/connect/7c24a500424d2a1ca82efff85e11a7f2/listofpvth.pdf?MOD=AJPERES&lmod=595582321&CACHEID=7c24a500424d2a1ca82efff85e11a7f237\
Delhi\South\Hiba MedicalCentre\F-14/2, NafeesRoad, Batla HouseJamiaNagar, Okhla, South, Delhi.Phone-011 26985237\http://www.delhi.gov.in/wps/wcm/connect/7c24a500424d2a1ca82efff85e11a7f2/listofpvth.pdf?MOD=AJPERES&lmod=595582321&CACHEID=7c24a500424d2a1ca82efff85e11a7f238\
Delhi\North\Hindu Rao Hospital\DR. J.S. Kkaranwal Memorial Road, Near Malka Ganj, Sabji Mandi, Malka Ganj, North, Delhi.Phone-011 23919476, 011 23913562, 011 23919563, 011 23919634, 011 23919625, 011 23919769, 011 23919704, 011 23919761, 011 23919728, 011 23919738, 011 23932390\http://www.hinduraohospital.com/\
Delhi\North West\Hitaishi Hospital\E-15-154, Sector8, Rohini, North West, Delhi.Phone-011 27949211\http://www.delhi.gov.in/wps/wcm/connect/7c24a500424d2a1ca82efff85e11a7f2/listofpvth.pdf?MOD=AJPERES&lmod=595582321&CACHEID=7c24a500424d2a1ca82efff85e11a7f239\
Delhi\West\Hi-Tech Eye Centre\A-12, F.F.,Vikaspuri, West, Delhi.Phone-011 25508081\http://www.delhi.gov.in/wps/wcm/connect/7c24a500424d2a1ca82efff85e11a7f2/listofpvth.pdf?MOD=AJPERES&lmod=595582321&CACHEID=7c24a500424d2a1ca82efff85e11a7f240\
Delhi\South West\Holy Angle’sHospital\Plot-B,CommunityCentre, VasantVihar,BasantLok,, South West, Delhi.Phone-011 26141119\http://www.delhi.gov.in/wps/wcm/connect/7c24a500424d2a1ca82efff85e11a7f2/listofpvth.pdf?MOD=AJPERES&lmod=595582321&CACHEID=7c24a500424d2a1ca82efff85e11a7f241\
Delhi\East\Holy Child NursingHome\C-43/44, EastKrishna Nagar, East, Delhi.Phone-011 22414528\http://www.delhi.gov.in/wps/wcm/connect/7c24a500424d2a1ca82efff85e11a7f2/listofpvth.pdf?MOD=AJPERES&lmod=595582321&CACHEID=7c24a500424d2a1ca82efff85e11a7f242\
Delhi\South\Holy Family Hospital\Near Fortis Escorts Hospital, Okhla Road, South, Delhi.Phone-011 26845900, 011 26845909, 011 26332800, 011 26332809\http://hfhDelhi.org/\
Delhi\South West\Human Care Hospital\Plot No. -37, PremDham, DefenceEnclave,Najafgarh , South West, Delhi.\http://www.delhi.gov.in/wps/wcm/connect/7c24a500424d2a1ca82efff85e11a7f2/listofpvth.pdf?MOD=AJPERES&lmod=595582321&CACHEID=7c24a500424d2a1ca82efff85e11a7f243\
Delhi\South\Hygiea Hospital\210A, Munirka Village, South, Delhi.\http://www.delhi.gov.in/wps/wcm/connect/7c24a500424d2a1ca82efff85e11a7f2/listofpvth.pdf?MOD=AJPERES&lmod=595582321&CACHEID=7c24a500424d2a1ca82efff85e11a7f244\Delhi\West\Amar LeelaHospital (P) Ltd.\B-1/6, Janakpuri , West, Delhi.Phone-011 25537965,011 25537966\http://www.delhi.gov.in/wps/wcm/connect/7c24a500424d2a1ca82efff85e11a7f2/listofpvth.pdf?MOD=AJPERES&lmod=595582321&CACHEID=7c24a500424d2a1ca82efff85e11a7f17\
Delhi\West\Amardeep NursingHome\A-250/1, HariNagar, West, Delhi.Phone-011 25494000,011 25495000\http://www.delhi.gov.in/wps/wcm/connect/7c24a500424d2a1ca82efff85e11a7f2/listofpvth.pdf?MOD=AJPERES&lmod=595582321&CACHEID=7c24a500424d2a1ca82efff85e11a7f18\
Delhi\West\Amit Nursing Home and Surgical Center\A-3 Manak Vihar Ext.Opp Block 2 Subhash Nagar, Near Pacific Mall ,Tihar, West, Delhi.Phone-011 28122149011 28126894\http://www.amitnursinghome.com/\
Delhi\West\Amit NursingHome\A-3 Manak Vihar Extension,Opposite Block 2 Subhash Nagar, Near Pacific MallTihar, West, Delhi.Phone-011 28122149, 011 28126894\http://www.amitnursinghome.com/\
Delhi\Central\Amulya SurgicalCentre\28/27, East PatelNagar, Central, Delhi.Phone-011 25883029\http://www.amulyaclinics.com/\
Delhi\East\Anand Hospital\B-13, Nirmal Vihar,Najafgarh, East, Delhi.Phone-011 25016312\http://anandhealthcare.in/\
Delhi\West\Anand Hospital\B-52, New Krishna Park, Dholi Piao, Vikaspuri, West, Delhi.Phone-011 2550688, 011 25541527\http://anandhealthcare.in/\
Delhi\North\Anand MayaHospital\B-38, Ramgesh , North, Delhi.Phone-011 64546859\http://www.delhi.gov.in/wps/wcm/connect/7c24a500424d2a1ca82efff85e11a7f2/listofpvth.pdf?MOD=AJPERES&lmod=595582321&CACHEID=7c24a500424d2a1ca82efff85e11a7f18\
Delhi\Central\Anand NursingHome\34/5-A, WestPatel Nagar, Central, Delhi.Phone-011 25785701 ,011 25741363\http://www.delhi.gov.in/wps/wcm/connect/7c24a500424d2a1ca82efff85e11a7f2/listofpvth.pdf?MOD=AJPERES&lmod=595582321&CACHEID=7c24a500424d2a1ca82efff85e11a7f18\
Delhi\North West\Anand’s Ent Hospital\Vikas Chamber, D-Block, Central Market, Prashant Vihar, Outer Ring Road, North West, Delhi.Phone-011 27562300, 011 27568400\http://www.drmaheshanand.com/\Delhi\South West\Institute of Liver and Biliary Sciences\D-1, Vasant Kunj, South West, Delhi.Phone- 011 46300000, 011 26706700\http://www.ilbs.in\
Delhi\South\Iqbal Faizy Ch.Medical Centre andNursing Home\B-43, Okhla Vihar,Jamia Nagar, OkhlaRoad, South, Delhi.Phone-011 26922845\http://www.delhi.gov.in/wps/wcm/connect/7c24a500424d2a1ca82efff85e11a7f2/listofpvth.pdf?MOD=AJPERES&lmod=595582321&CACHEID=7c24a500424d2a1ca82efff85e11a7f249\
Delhi\South\Iren IVF Centre\Safdarjang,, South, Delhi.\http://www.delhi.gov.in/wps/wcm/connect/7c24a500424d2a1ca82efff85e11a7f2/listofpvth.pdf?MOD=AJPERES&lmod=595582321&CACHEID=7c24a500424d2a1ca82efff85e11a7f250\
Delhi\South\Irene Hospital\DD-23, Kalkaji , South, Delhi.Phone-011 49922222\http://www.delhi.gov.in/wps/wcm/connect/7c24a500424d2a1ca82efff85e11a7f2/listofpvth.pdf?MOD=AJPERES&lmod=595582321&CACHEID=7c24a500424d2a1ca82efff85e11a7f251\
Delhi\North\Ishan Hospital\Plot No.1, Pocket 8B, Sector - 19, Rohini, North, Delhi.Phone-011 27892798 , 011 27892799\http://www.ishanhospital.com/\
Delhi\South\ISIS Hospital\A-1, KailashColony, South, Delhi.Phone-011 41022907\http://www.delhi.gov.in/wps/wcm/connect/7c24a500424d2a1ca82efff85e11a7f2/listofpvth.pdf?MOD=AJPERES&lmod=595582321&CACHEID=7c24a500424d2a1ca82efff85e11a7f252\
Delhi\West\J K Hospital\B- 1 / 4A,JanakPuri, West, Delhi.Phone-011 25500445 ,011 30987500\http://www.delhi.gov.in/wps/wcm/connect/7c24a500424d2a1ca82efff85e11a7f2/listofpvth.pdf?MOD=AJPERES&lmod=595582321&CACHEID=7c24a500424d2a1ca82efff85e11a7f253\
Delhi\West\J M S BatraHospital\B-1/5, Janakpuri , West, Delhi.Phone-011 25555424\http://www.delhi.gov.in/wps/wcm/connect/7c24a500424d2a1ca82efff85e11a7f2/listofpvth.pdf?MOD=AJPERES&lmod=595582321&CACHEID=7c24a500424d2a1ca82efff85e11a7f254\
Delhi\North East\J.D.Medical Centre\1/4649/8B, MandiRoad, ModernShahdra New, North East, Delhi.Phone-011 22595374\http://www.delhi.gov.in/wps/wcm/connect/7c24a500424d2a1ca82efff85e11a7f2/listofpvth.pdf?MOD=AJPERES&lmod=595582321&CACHEID=7c24a500424d2a1ca82efff85e11a7f255\
Delhi\North East\J.P.Hospital\A-1/7A, MainWazirabad Road,Bhajanpura, North East, Delhi.Phone-011 22181041\http://www.delhi.gov.in/wps/wcm/connect/7c24a500424d2a1ca82efff85e11a7f2/listofpvth.pdf?MOD=AJPERES&lmod=595582321&CACHEID=7c24a500424d2a1ca82efff85e11a7f256\Delhi\East\J.P.MemorialHospital\F-189, DilshadColony, East, Delhi.Phone-011 22354050,011 22354098\http://www.delhi.gov.in/wps/wcm/connect/7c24a500424d2a1ca82efff85e11a7f2/listofpvth.pdf?MOD=AJPERES&lmod=595582321&CACHEID=7c24a500424d2a1ca82efff85e11a7f257\
Delhi\South West\J.S.R Medical Centre\6444, Palam Vihar, Bijwasan Road, Bijwasan, South West, Delhi.\http://www.delhi.gov.in/wps/wcm/connect/7c24a500424d2a1ca82efff85e11a7f2/listofpvth.pdf?MOD=AJPERES&lmod=595582321&CACHEID=7c24a500424d2a1ca82efff85e11a7f7\
Delhi\East\Jag Parvesh Chander Hospital\Shastri Park, East, Delhi.Phone- 011 22184455, 011 22184453\http://www.Delhi.gov.in/wps/wcm/connect/doit_health/Health/Home/Hospitals/Jag+Pravesh+Chandra+Hospital/\
Delhi\West\Jai Balaji Medical Centre\Plot No. 133, LionsEnclave, RothakRoad, UttamNagar, West, Delhi.Phone-011 65765969\http://www.delhi.gov.in/wps/wcm/connect/7c24a500424d2a1ca82efff85e11a7f2/listofpvth.pdf?MOD=AJPERES&lmod=595582321&CACHEID=7c24a500424d2a1ca82efff85e11a7f258\
Delhi\South\Jai Maa TaraHospital\B-1434, Main Market, Shastri Nagar, South, Delhi.\http://www.delhi.gov.in/wps/wcm/connect/7c24a500424d2a1ca82efff85e11a7f2/listofpvth.pdf?MOD=AJPERES&lmod=595582321&CACHEID=7c24a500424d2a1ca82efff85e11a7f259\
Delhi\East\Jain CharitableHospital\2949, RaghubarPura No.2, GandhiNagar, East, Delhi.Phone-011 22435807,011 22429787\http://www.delhi.gov.in/wps/wcm/connect/7c24a500424d2a1ca82efff85e11a7f2/listofpvth.pdf?MOD=AJPERES&lmod=595582321&CACHEID=7c24a500424d2a1ca82efff85e11a7f260\
Delhi\North West\Jain Child andMaternity HospitalPvt. Ltd.\AE-7, ShalimarBagh, North West, Delhi.Phone-011 27483813\http://www.delhi.gov.in/wps/wcm/connect/7c24a500424d2a1ca82efff85e11a7f2/listofpvth.pdf?MOD=AJPERES&lmod=595582321&CACHEID=7c24a500424d2a1ca82efff85e11a7f261\
Delhi\North West\Jain Clinic ENT andEye Care Centre\2143-A, MandiExtension, Bawana Road,Narela , North West, Delhi.Phone-011 27284659\http://www.delhi.gov.in/wps/wcm/connect/7c24a500424d2a1ca82efff85e11a7f2/listofpvth.pdf?MOD=AJPERES&lmod=595582321&CACHEID=7c24a500424d2a1ca82efff85e11a7f262\
Delhi\North West\Jain Eye and MedicalCentre\NS-3, AD Block,Bhagwan MahavirRoad, ShalimarBagh, North West, Delhi.Phone-011 64604822\http://www.delhi.gov.in/wps/wcm/connect/7c24a500424d2a1ca82efff85e11a7f2/listofpvth.pdf?MOD=AJPERES&lmod=595582321&CACHEID=7c24a500424d2a1ca82efff85e11a7f263\
Delhi\North West\Jain Eye Hospital andLaser Centre\AG-152, ShalimarBagh, North West, Delhi.Phone-011 27479272,011 27477399\http://www.delhi.gov.in/wps/wcm/connect/7c24a500424d2a1ca82efff85e11a7f2/listofpvth.pdf?MOD=AJPERES&lmod=595582321&CACHEID=7c24a500424d2a1ca82efff85e11a7f264\Delhi\East\Jain Hospital\177-178, JagritiEnclave, East, Delhi.Phone-011 22144946\http://www.delhi.gov.in/wps/wcm/connect/7c24a500424d2a1ca82efff85e11a7f2/listofpvth.pdf?MOD=AJPERES&lmod=595582321&CACHEID=7c24a500424d2a1ca82efff85e11a7f265\
Delhi\East\Jain Hospital\4, Puspanjali , East, Delhi.Phone-011 22161561\http://www.delhi.gov.in/wps/wcm/connect/7c24a500424d2a1ca82efff85e11a7f2/listofpvth.pdf?MOD=AJPERES&lmod=595582321&CACHEID=7c24a500424d2a1ca82efff85e11a7f266\
Delhi\East\Jain Hospital\177 - 178, Jagriti Enclave, Vikas Marg Extension, Saini Enclave, Karkardooma, Anand Vihar, East, Delhi.Phone- 011 43055355, 011 22146442\http://www.jainhospital.com\
Delhi\South\Jain Medical Centre\A-39, South Extension, Part-II, South, Delhi.Phone-011 26250828,011 26258878\http://www.delhi.gov.in/wps/wcm/connect/7c24a500424d2a1ca82efff85e11a7f2/listofpvth.pdf?MOD=AJPERES&lmod=595582321&CACHEID=7c24a500424d2a1ca82efff85e11a7f267\
Delhi\North West\Jain Muni RoshanLal Charitable Trust\2559, JainMarg, Tri Nagar, North West, Delhi.Phone-011 27383108,011 27384687\http://www.delhi.gov.in/wps/wcm/connect/7c24a500424d2a1ca82efff85e11a7f2/listofpvth.pdf?MOD=AJPERES&lmod=595582321&CACHEID=7c24a500424d2a1ca82efff85e11a7f268\
Delhi\North West\Jain Surgical andInfertility Centre\2151, BawanaRoad, Narela, North West, Delhi.\http://www.delhi.gov.in/wps/wcm/connect/7c24a500424d2a1ca82efff85e11a7f2/listofpvth.pdf?MOD=AJPERES&lmod=595582321&CACHEID=7c24a500424d2a1ca82efff85e11a7f269\
Delhi\North West\Jain Surgical Clinic\358, TarunEnclave,Pitampura, OuterRing Road, North West, Delhi.Phone-011 27012224\http://www.delhi.gov.in/wps/wcm/connect/7c24a500424d2a1ca82efff85e11a7f2/listofpvth.pdf?MOD=AJPERES&lmod=595582321&CACHEID=7c24a500424d2a1ca82efff85e11a7f270\
Delhi\West\Jainak Medical and Orthopaedic Centre\C1/127, Janakpuri, West, Delhi.Phone-011 25620005 , 011 25541133\http://jainakmedical.com/\
Delhi\West\Jainar Hospital\A-328, MeeraBagh, PaschimVihar, West, Delhi.Phone-011 25267056,011 25285650\http://www.delhi.gov.in/wps/wcm/connect/7c24a500424d2a1ca82efff85e11a7f2/listofpvth.pdf?MOD=AJPERES&lmod=595582321&CACHEID=7c24a500424d2a1ca82efff85e11a7f272\
Delhi\North\Jaipur Golden Hospital\2, Institutional Area, Sector-III, Rohini, North, Delhi.Phone- 011 27907000,011 27907020\http://www.jghdelhi.com/\Delhi\West\Janak NursingHome and MTPCentre\C4F/1, Janakpuri , West, Delhi.Phone-011 25551221,011 25616143\http://www.delhi.gov.in/wps/wcm/connect/7c24a500424d2a1ca82efff85e11a7f2/listofpvth.pdf?MOD=AJPERES&lmod=595582321&CACHEID=7c24a500424d2a1ca82efff85e11a7f273\
Delhi\West\Janakpuri Super Speciality Hospital\C-2B, Near Fire Station and Bharti Mahila College, Janakpuri , West, Delhi.Phone- 011 25552023, 011 25552024, 011 25552024\http://www.Delhi.gov.in/wps/wcm/connect/doit_health/Health/Home/Hospitals/Janakpuri+Super+Speciality+Hospital/\
Delhi\West\Janki Das KapoorMemorial Hospital\Naraina Road,Ranjit Nagar, Pandav Nagar, West, Delhi.Phone-011 25705811,011 25700216\http://www.delhi.gov.in/wps/wcm/connect/7c24a500424d2a1ca82efff85e11a7f2/listofpvth.pdf?MOD=AJPERES&lmod=595582321&CACHEID=7c24a500424d2a1ca82efff85e11a7f274\
Delhi\South West\Janki Hospital\RZ-89, Old RoshanPura,Najafgarh , South West, Delhi.\http://www.delhi.gov.in/wps/wcm/connect/7c24a500424d2a1ca82efff85e11a7f2/listofpvth.pdf?MOD=AJPERES&lmod=595582321&CACHEID=7c24a500424d2a1ca82efff85e11a7f275\
Delhi\North East\Jannat NursingHome\E-II, Nehru Vihar , North East, Delhi.\http://www.delhi.gov.in/wps/wcm/connect/7c24a500424d2a1ca82efff85e11a7f2/listofpvth.pdf?MOD=AJPERES&lmod=595582321&CACHEID=7c24a500424d2a1ca82efff85e11a7f276\
Delhi\North East\Jaslok MedicalCentre\C-1/15 A,Yamuna Vihar, North East, Delhi.Phone-011 22263878,011 22184748\http://www.delhi.gov.in/wps/wcm/connect/7c24a500424d2a1ca82efff85e11a7f2/listofpvth.pdf?MOD=AJPERES&lmod=595582321&CACHEID=7c24a500424d2a1ca82efff85e11a7f277\
Delhi\West\Jasrotia Hospital\A-252, Hari Nagar, West, Delhi.Phone-011 25495621\http://www.delhi.gov.in/wps/wcm/connect/7c24a500424d2a1ca82efff85e11a7f2/listofpvth.pdf?MOD=AJPERES&lmod=595582321&CACHEID=7c24a500424d2a1ca82efff85e11a7f278\
Delhi\West\Jawa Nursing Home\A-3 / 313, PaschimVihar, West, Delhi.Phone-011 25264252\http://www.delhi.gov.in/wps/wcm/connect/7c24a500424d2a1ca82efff85e11a7f2/listofpvth.pdf?MOD=AJPERES&lmod=595582321&CACHEID=7c24a500424d2a1ca82efff85e11a7f279\
Delhi\South West\Jay Clinic andMaternity Home\H.NO.68, OldRoshanpuraNajafgarh, South West, Delhi.Phone-011 24565403\http://www.delhi.gov.in/wps/wcm/connect/7c24a500424d2a1ca82efff85e11a7f2/listofpvth.pdf?MOD=AJPERES&lmod=595582321&CACHEID=7c24a500424d2a1ca82efff85e11a7f280\
Delhi\New Delhi\Jeevan Anmol Hospital\Mayur Vihar Phase-1, Near Metro Station, , New Delhi, Delhi.Phone-011 22750380, 011 22795237\http://www.jeevananmolhospital.com/\Delhi\South\Hamdard Medical College\Hamdard Nagar, South, Delhi.Phone-011 64788202\http://www.himsr.org\
Delhi\Central\Hameedia MedicalCentre\1992-93,Quasimjan Street,Near Haji TentHouse,Lal Kuan , Central, Delhi.\http://www.delhi.gov.in/wps/wcm/connect/7c24a500424d2a1ca82efff85e11a7f2/listofpvth.pdf?MOD=AJPERES&lmod=595582321&CACHEID=7c24a500424d2a1ca82efff85e11a7f229\
Delhi\West\Handa Nursing Home\57, Najafgarh Road, Raja Garden, West, Delhi.Phone-011 25433342, 011 25415726, 011 25162299,011 45606000\http://handanursinghome.com/\
Delhi\West\Handa Stone Clinic\127, Raja Garden , West, Delhi.Phone-011 25433342,011 25161133\http://www.delhi.gov.in/wps/wcm/connect/7c24a500424d2a1ca82efff85e11a7f2/listofpvth.pdf?MOD=AJPERES&lmod=595582321&CACHEID=7c24a500424d2a1ca82efff85e11a7f230\
Delhi\North\Hans CharitableHospital\149, Dr.Mukherjee Nagar(West), North, Delhi.Phone- 011 27601959,011 27601109\http://www.delhi.gov.in/wps/wcm/connect/7c24a500424d2a1ca82efff85e11a7f2/listofpvth.pdf?MOD=AJPERES&lmod=595582321&CACHEID=7c24a500424d2a1ca82efff85e11a7f231\
Delhi\West\Hardik Hospital\29 C, Budh Bazar,Hastsal,VikasNagar, West, Delhi.Phone-011 32045600\http://www.delhi.gov.in/wps/wcm/connect/7c24a500424d2a1ca82efff85e11a7f2/listofpvth.pdf?MOD=AJPERES&lmod=595582321&CACHEID=7c24a500424d2a1ca82efff85e11a7f232\
Delhi\West\Hari Eye and DentalCentre\33, RajouriGarden, NajafgarhRoad, West, Delhi.Phone-011 259395113\http://www.delhi.gov.in/wps/wcm/connect/7c24a500424d2a1ca82efff85e11a7f2/listofpvth.pdf?MOD=AJPERES&lmod=595582321&CACHEID=7c24a500424d2a1ca82efff85e11a7f233\
Delhi\North West\Hari Hospital\74 A, Hari Enclave, Sultanpuri, North West, Delhi.Phone-011 25182362\http://www.delhi.gov.in/wps/wcm/connect/7c24a500424d2a1ca82efff85e11a7f2/listofpvth.pdf?MOD=AJPERES&lmod=595582321&CACHEID=7c24a500424d2a1ca82efff85e11a7f234\
Delhi\South West\Healing TouchHospital\7/ 5 and 7/ 6, OppositeLaxman PublicSchool, Sarva PriyaVihar, South West, Delhi.Phone-011 26852583\http://www.delhi.gov.in/wps/wcm/connect/7c24a500424d2a1ca82efff85e11a7f2/listofpvth.pdf?MOD=AJPERES&lmod=595582321&CACHEID=7c24a500424d2a1ca82efff85e11a7f235\
Delhi\East\Health Centre Cum Maternity Hospital\Kanti Nagar, East, Delhi.Phone- 011 22099942,011 22097399\http://www.Delhi.gov.in/wps/wcm/connect/doit_health/Health/Home/Hospitals/Health+Centre+cum+Maternity+Hospital\Delhi\West\Jeewan JyotiHospital\B-28, KiranGarden, UttamNagar, West, Delhi.Phone-011 25338330,011 25338869, 011 25338841\http://www.jeevanjyotihospital.co.in/\
Delhi\New Delhi\Jeewan Mala Hospital\67/1, New Rohtak Road, Karol Bagh, New Delhi, Delhi.Phone-011 23511474,011 23511477, 011 47774141\http://www.jeewanmalahospital.com/\
Delhi\West\Jeewan Moti Khera Hospital\Near Punjab National Bank, Nangloi, West, Delhi.Phone-011 25472630,011 25481654\http://www.delhi.gov.in/wps/wcm/connect/7c24a500424d2a1ca82efff85e11a7f2/listofpvth.pdf?MOD=AJPERES&lmod=595582321&CACHEID=7c24a500424d2a1ca82efff85e11a7f2\
Delhi\Central\Jeewan Nursing Home and Hospital\2 - B, Pusa Road, Sadhu Vaswani Marg, Central, Delhi.Phone-011 42430246\\
Delhi\Central\Jessa Ram Hospital\6/35, Gurudwara Road, Karol Bagh West Extension Area, Karol Bagh, Central, Delhi.Phone-011 51503222 , 011 51503223, 011 51503224,011 51503225\\
Delhi\North West\Jhamb Maternity and Medical Centre\BP-59, Shalimar Bagh, North West, Delhi.Phone-011 27476609, 011 27475393\http://www.delhi.gov.in/wps/wcm/connect/7c24a500424d2a1ca82efff85e11a7f2/listofpvth.pdf?MOD=AJPERES&lmod=595582321&CACHEID=7c24a500424d2a1ca82efff85e11a7f3\
Delhi\East\Jiva Ayurveda Clinic\Shop No-4, P-11, Pandav NagarMayur Vihar, Phase-I, East, Delhi.Phone- 011 41521213\http://www.jiva.com\
Delhi\North West\Jivodaya Hospital\Ashok Vihar II, Pocket B 4, Phase 3, Ashok Vihar, North West, Delhi.Phone-011 27253204, 011 27418672\http://www.delhi.gov.in/wps/wcm/connect/7c24a500424d2a1ca82efff85e11a7f2/listofpvth.pdf?MOD=AJPERES&lmod=595582321&CACHEID=7c24a500424d2a1ca82efff85e11a7f4\
Delhi\North West\Jiwan Charitable Hospital\R-225-226-227-228-229, Mangol Puri, North West, Delhi.Phone-011 27916689, 011 27915743\http://www.delhi.gov.in/wps/wcm/connect/7c24a500424d2a1ca82efff85e11a7f2/listofpvth.pdf?MOD=AJPERES&lmod=595582321&CACHEID=7c24a500424d2a1ca82efff85e11a7f5\
Delhi\North West\Jiwan Dna Hospital\Q-62, Prem Nagar- II, Kirari Suleman Nagar, North West, Delhi.Phone-011 25474960\http://www.delhi.gov.in/wps/wcm/connect/7c24a500424d2a1ca82efff85e11a7f2/listofpvth.pdf?MOD=AJPERES&lmod=595582321&CACHEID=7c24a500424d2a1ca82efff85e11a7f6\Delhi\North East\Kailash Surgicare Ccentre\C-9 Parshu Ram Gali, Jyoti Nagar West, North East, Delhi.Phone-011 22813574\http://www.delhi.gov.in/wps/wcm/connect/7c24a500424d2a1ca82efff85e11a7f2/listofpvth.pdf?MOD=AJPERES&lmod=595582321&CACHEID=7c24a500424d2a1ca82efff85e11a7f14\
Delhi\South West\Kairali Ayurvedic Group\D-120, Andheria Mor, Mehrauli Gurgaon Road, South West, Delhi.\http://www.kairali.com/\
Delhi\West\Kakkar Health Care Group\C2A/236A, Block C 2A, Janakpuri, West, Delhi.\http://www.kakarhealthcare.co.in/\
Delhi\West\Kalawati Kasturba Hospital pvt. Ltd\2, Inder Enclave, Peeragarhi, West, Delhi.Phone-011 25257540\http://www.delhi.gov.in/wps/wcm/connect/7c24a500424d2a1ca82efff85e11a7f2/listofpvth.pdf?MOD=AJPERES&lmod=595582321&CACHEID=7c24a500424d2a1ca82efff85e11a7f15\
Delhi\Central\Kalawati Saran Hospital\C- 604, Shivaji Stadium Bus Terminal Co. Place, Shaheed Bhagat Singh Marg, Gole Market, Central, Delhi.Phone- 011 23363728\http://www.lhmc.in/kl_admin.asp\
Delhi\South\Kalra Dental Clinic\C-270 Defence Colony, South, Delhi.Phone-011 24336429\http://kalradentalclinic.com/\
Delhi\West\Kalra Hospital and SRCNC\Tulsi Dass Kalra Marg, Kirti Nagar, West, Delhi.Phone- 011 45005600, 011 45005700\http://www.kalrahospital.net\
Delhi\East\Kalyan Hospital\No.G-22, Dilshad Colony, Dilshad Garden, East, Delhi.Phone-011 22351292, 011 22353827\http://www.delhi.gov.in/wps/wcm/connect/7c24a500424d2a1ca82efff85e11a7f2/listofpvth.pdf?MOD=AJPERES&lmod=595582321&CACHEID=7c24a500424d2a1ca82efff85e11a7f16\
Delhi\South West\Kalyani Hospital\RZ 30A, Naya Bazaar, Rathiram Park, Najafgarh, South West, Delhi.Phone-011 64996162, 011 25321270\http://www.delhi.gov.in/wps/wcm/connect/7c24a500424d2a1ca82efff85e11a7f2/listofpvth.pdf?MOD=AJPERES&lmod=595582321&CACHEID=7c24a500424d2a1ca82efff85e11a7f17\
Delhi\West\Kamlesh Medical Centre\423, Behra Enclave, Paschim Vihar, West, Delhi.Phone-011 25266221\http://www.delhi.gov.in/wps/wcm/connect/7c24a500424d2a1ca82efff85e11a7f2/listofpvth.pdf?MOD=AJPERES&lmod=595582321&CACHEID=7c24a500424d2a1ca82efff85e11a7f19\Delhi\West\Kansal Nursing Home\9, Bal Udhyan Marg, Uttam Nagar, West, Delhi.Phone-011 25330203, 011 25334911, 011 25333785\http://www.delhi.gov.in/wps/wcm/connect/7c24a500424d2a1ca82efff85e11a7f2/listofpvth.pdf?MOD=AJPERES&lmod=595582321&CACHEID=7c24a500424d2a1ca82efff85e11a7f20\
Delhi\North West\Kanta Sethi Hospital\A 777-778, Avantika, Sector-2, Rohini, North West, Delhi.Phone-011 27523259, 011 30905967\http://www.delhi.gov.in/wps/wcm/connect/7c24a500424d2a1ca82efff85e11a7f2/listofpvth.pdf?MOD=AJPERES&lmod=595582321&CACHEID=7c24a500424d2a1ca82efff85e11a7f21\
Delhi\West\Kantoor Maternity and Medical Centre\11/396,Sunder Vihar, West, Delhi.Phone-011 25261601, 011 25258055\http://www.delhi.gov.in/wps/wcm/connect/7c24a500424d2a1ca82efff85e11a7f2/listofpvth.pdf?MOD=AJPERES&lmod=595582321&CACHEID=7c24a500424d2a1ca82efff85e11a7f22\
Delhi\West\Kapoor Medical Centre, Naraina Vihar\E-18, Naraina Vihar, West, Delhi.Phone-011 25792105, 011 25897116, 011 25793124, 011 25791387\http://www.delhi.gov.in/wps/wcm/connect/7c24a500424d2a1ca82efff85e11a7f2/listofpvth.pdf?MOD=AJPERES&lmod=595582321&CACHEID=7c24a500424d2a1ca82efff85e11a7f24\
Delhi\West\Kartik Nursing Home and Urology Centre\C- 15, C- Block Community Centre, Behind Janak Cinema, Janakpuri, West, Delhi.Phone-011 33635684, 011 45607400\http://www.delhi.gov.in/wps/wcm/connect/7c24a500424d2a1ca82efff85e11a7f2/listofpvth.pdf?MOD=AJPERES&lmod=595582321&CACHEID=7c24a500424d2a1ca82efff85e11a7f25\
Delhi\North East\Karuna Hospital\D-62, Dilshad Colony,Dilshad Garden, New Delhi, Phone- , North East, Delhi.Phone-011 66443051\http://www.karunahospital.com/\
Delhi\West\Karuna Sindhu Charitable Hospital\Bakkarwala Marg, Nangloi-Najafgarh Road, West, Delhi.Phone-011 3222 3298, 011 3222 3299\http://www.karunasindhuhospital.com/\
Delhi\Central\Kasturba Gandhi Hospital\Near Jama Masjid, Dariya Ganj, Central, Delhi.Phone- 011 23274376,011 23270390\http://www.kasturbahospital.org/\
Delhi\West\Kathuria Nursing Home\F-131, Rajouri Garden, West, Delhi.Phone-011 25454757, 011 25416000\http://www.delhi.gov.in/wps/wcm/connect/7c24a500424d2a1ca82efff85e11a7f2/listofpvth.pdf?MOD=AJPERES&lmod=595582321&CACHEID=7c24a500424d2a1ca82efff85e11a7f25\
Delhi\West\Kaushik Ortho Maternity Hospital\Building No. C-2/94, C-1 Road, Janakpuri, West, Delhi.Phone-011 25553697\\Delhi\East\Anant Jyoti EyeHospital\432 - A, JagritiEnclave, Vikas, Marg, Near Karkardooma, Metro Station, East, Delhi.Phone-011 22140000, 011 22140007\http://\
Delhi\East\Angra Eye Institute\A-58, G.F. ,South Westasthya Vihar, East, Delhi.Phone-011 22417070,011 22440455\http://www.delhi.gov.in/wps/wcm/connect/7c24a500424d2a1ca82efff85e11a7f2/listofpvth.pdf?MOD=AJPERES&lmod=595582321&CACHEID=7c24a500424d2a1ca82efff85e11a7f18\
Delhi\West\Ansari Hospital\RZ-20, F/B, StreetNo-6, Sagar Pur, West, Delhi.Phone-011 52494660\http://www.delhi.gov.in/wps/wcm/connect/7c24a500424d2a1ca82efff85e11a7f2/listofpvth.pdf?MOD=AJPERES&lmod=595582321&CACHEID=7c24a500424d2a1ca82efff85e11a7f19\
Delhi\West\A-One HospitalPvt.Ltd.\A-1/7, MainRohtak Road, PaschimVihar, West, Delhi.Phone-011 2527117\http://www.delhi.gov.in/wps/wcm/connect/7c24a500424d2a1ca82efff85e11a7f2/listofpvth.pdf?MOD=AJPERES&lmod=595582321&CACHEID=7c24a500424d2a1ca82efff85e11a7f20\
Delhi\West\Apaar NursingHome\A-26, AdarshNagar, UttamNagar, West, Delhi.Phone-011 25632077\http://www.delhi.gov.in/wps/wcm/connect/7c24a500424d2a1ca82efff85e11a7f2/listofpvth.pdf?MOD=AJPERES&lmod=595582321&CACHEID=7c24a500424d2a1ca82efff85e11a7f21\
Delhi\East\Apex Citi Hospital\D-440, West VinodNagar, East, Delhi.Phone-011 22475111\http://www.delhi.gov.in/wps/wcm/connect/7c24a500424d2a1ca82efff85e11a7f2/listofpvth.pdf?MOD=AJPERES&lmod=595582321&CACHEID=7c24a500424d2a1ca82efff85e11a7f22\
Delhi\East\Apex City Hospital\Hanuman Road, D-Block, West Vinod Nagar, Near Mayur Vihar and Parparganj mother dairy, IP Extension, East, Delhi.Phone-011 22472111, 011 22473111\http://www.apexphysio.in\
Delhi\South\Apex ENT and EyeCentre\Z-32, HauzKhas, South, Delhi.\http://www.delhi.gov.in/wps/wcm/connect/7c24a500424d2a1ca82efff85e11a7f2/listofpvth.pdf?MOD=AJPERES&lmod=595582321&CACHEID=7c24a500424d2a1ca82efff85e11a7f23\
Delhi\South\Apex Hospital\Naraina, South, Delhi.Phone-011 25793430\http://www.delhi.gov.in/wps/wcm/connect/7c24a500424d2a1ca82efff85e11a7f2/listofpvth.pdf?MOD=AJPERES&lmod=595582321&CACHEID=7c24a500424d2a1ca82efff85e11a7f24\
Delhi\East\Archana MedicalCentre\191-A, Pocket – A,Mayur Vihar II, East, Delhi.Phone-011 22774864\http://www.delhi.gov.in/wps/wcm/connect/7c24a500424d2a1ca82efff85e11a7f2/listofpvth.pdf?MOD=AJPERES&lmod=595582321&CACHEID=7c24a500424d2a1ca82efff85e11a7f25\Delhi\North\KayaKalp Hospital\12, Part-II, Jharoda Mazra, North, Delhi.Phone-011 27614600, 011 27614606\http://www.delhi.gov.in/wps/wcm/connect/7c24a500424d2a1ca82efff85e11a7f2/listofpvth.pdf?MOD=AJPERES&lmod=595582321&CACHEID=7c24a500424d2a1ca82efff85e11a7f26\
Delhi\North West\Kesar Hospital\Shop No. AH-11 Shaheed Udham Singh Marg, Block AH, Shalimar Bagh, North West, Delhi.Phone-011 27472002, 011 27478822\http://www.delhi.gov.in/wps/wcm/connect/7c24a500424d2a1ca82efff85e11a7f2/listofpvth.pdf?MOD=AJPERES&lmod=595582321&CACHEID=7c24a500424d2a1ca82efff85e11a7f27\
Delhi\South West\Kesar Nursing Home\WZ-61A/3B Vashisht Park, Pankha Road, South West, Delhi.Phone-011 28523683, 011 32905231\http://www.kesarnursinghome.com/\
Delhi\Central\Khadija National Hospital\3123, Tiraha Behram Khan, Sir Syed Ahmed Road, Darya Ganj,, Central, Delhi.\http://www.khadijahospital.com/\
Delhi\South\Khandelwal Clinic\N-15, Ground Floor, Near ICICI Bank, Kalkaji, South, Delhi.Phone-011 41601848\http://khandelwalclinic.in/\
Delhi\East\Khandelwal Hospital and Urology Centre\B-16, East Krishna Nagar Main Road,Opp. Swarah Cinema, East, Delhi.Phone- 011 22094843, 011 22094844\http://www.khuc.in/\
Delhi\East\Khanna Eye Centre\E-368, Nirman Vihar, Vikas Marg, East, Delhi.Phone-011 22424344, 22424345\http://www.khannaeyecentre.com/\
Delhi\North West\Khanna Eye Centre, Model Town\A2 / 2, Model Town -1, North West, Delhi.Phone-011 27244290, 011 27228674, 011 27224582\http://www.khannaeyecentre.com/\
Delhi\West\Khanna Eye Centre, Vikas Marg\E-368, Nirman Vihar, Vikas Marg, West, Delhi.Phone-011 22424344, 011 22424345\http://www.khannaeyecentre.com/\
Delhi\North West\Khanna Nursing Home, Adrash Nagar\217, Sarai Pipal Thala, Adrash Nagar, North West, Delhi.Phone-011 27692039, 011 27693553, 011 27670647\http://www.delhi.gov.in/wps/wcm/connect/7c24a500424d2a1ca82efff85e11a7f2/listofpvth.pdf?MOD=AJPERES&lmod=595582321&CACHEID=7c24a500424d2a1ca82efff85e11a7f27\Delhi\West\Khanna Nursing Home, Janakpuri\Shop No. C 4 F/245, Janakpuri, West, Delhi.Phone-011 25551772, 011 25507947, 011 25501711\http://www.delhi.gov.in/wps/wcm/connect/7c24a500424d2a1ca82efff85e11a7f2/listofpvth.pdf?MOD=AJPERES&lmod=595582321&CACHEID=7c24a500424d2a1ca82efff85e11a7f27\
Delhi\West\Khetarpal Hospital\F-95, Bali Nagar, Near Ramesh Nagar Metro Station, Main Najafgarh Road, West, Delhi.Phone- 011 45515100, 011 25923139, 011 25923140\http://www.khetarpalhospital.com\
Delhi\West\Khetarpal Nursing Home\GN-5, FandG Sector, Shivaji Enclave (Near Shivaji College), West, Delhi.Phone-011 45600000, 011 25433131, 011 25433132, 011 25449935, 011 25164545,011 25442292\http://www.khetarpalnursinghome.com/\
Delhi\South West\Kidwai Nagar School Health Services Zone – V\Kidwai Nagar, South West, Delhi.\https://www.ndmc.gov.in/Departments/Medical%20Services/Dept_Health_maternity.aspx\
Delhi\North West\Kiran Eye Care Centre\B-50, Derawal Nagar, North West, Delhi.Phone-011 27134959, 011 27430434\http://kiraneyecare.eidentiti.com/\
Delhi\North East\Kiran Eye Centre\C-211, Phase II Road, Jhilmil Colony, North East, Delhi.Phone-011 64603093\http://kiraneyecentre.com/\
Delhi\East\KJIVF and Laparoscopic Centre\23-24, Gagan Vihar, Main Road (Near Karkardooma Flyover), East, Delhi.Phone-011 22503927, 011 65253282\http://www.kjivf.com/\
Delhi\North West\Kohli Nursing Home and Maternity Centre\Sector-8, Rohini, Saraswati Vihar, North West, Delhi.Phone-011 27948190, 011 27941669\http://www.delhi.gov.in/wps/wcm/connect/7c24a500424d2a1ca82efff85e11a7f2/listofpvth.pdf?MOD=AJPERES&lmod=595582321&CACHEID=7c24a500424d2a1ca82efff85e11a7f27\
Delhi\Central\Kolmet Hospital\7-B, Pusa Road, Karol Bagh, Central, Delhi.Phone-011 25752056, 011 45099999, 011 25863013\http://www.delhi.gov.in/wps/wcm/connect/7c24a500424d2a1ca82efff85e11a7f2/listofpvth.pdf?MOD=AJPERES&lmod=595582321&CACHEID=7c24a500424d2a1ca82efff85e11a7f27\
Delhi\North East\Krishna Hospital, Bhajan Pura\J-21, Main Road, 4th Pusta, Kartar Nagar, Bhajan Pura, North East, Delhi.Phone-011 22942733\http://www.delhi.gov.in/wps/wcm/connect/7c24a500424d2a1ca82efff85e11a7f2/listofpvth.pdf?MOD=AJPERES&lmod=595582321&CACHEID=7c24a500424d2a1ca82efff85e11a7f28\Delhi\North West\Krishna Hospital, Pitampura\9, Chanderlok Enclave, Pitampura, North West, Delhi.Phone-011 27356077, 011 27356078, 011 27356079\http://www.delhi.gov.in/wps/wcm/connect/7c24a500424d2a1ca82efff85e11a7f2/listofpvth.pdf?MOD=AJPERES&lmod=595582321&CACHEID=7c24a500424d2a1ca82efff85e11a7f29\
Delhi\South\Krishna Shalby Hospital\Sai Niketan, 5, Jasola Vihar, B/h Apollo Hospital, South, Delhi.Phone-022 26844504,\http://krishnashalby.com/\
Delhi\West\Krishna Surgical and Maternity Home\140-D Main Najafgarh Road, Nangloi, West, Delhi.Phone-011 25470063, 011 25943233\http://www.delhi.gov.in/wps/wcm/connect/7c24a500424d2a1ca82efff85e11a7f2/listofpvth.pdf?MOD=AJPERES&lmod=595582321&CACHEID=7c24a500424d2a1ca82efff85e11a7f30\
Delhi\North West\Kuber Hospital\12, Chanderlok Enclave, Pitam pura, North West, Delhi.Phone-011 27353246,011 27352931, 011 27354408\http://www.kuberhospital.com\
Delhi\West\Kukreja Hospital and Heart Centre\C-1 Vishal Enclave, Rajouri Garden, West, Delhi.Phone- 011 45675000\http://www.kukrejahospital.com\
Delhi\West\Kukreja Hospital and Heart Centre\C-I, Vishal Enclave, Rajouri Garden, West, Delhi.Phone-011 45675000\http://www.kukrejahospital.com/index.aspx\
Delhi\East\Kukreja Nursing Home\D-36, Acharya, Niketan Mayur Vihar Phase I, East, Delhi.Phone-011 22753123, 011 22752690\http://delhi.gov.in/wps/wcm/connect/doit_dceastupdated/DC+of+East+Delhi+Updated/Home/About+District/List+of+Government+Hospitals+in+East+Delhi\
Delhi\North West\Kumar Medicaland Maternity Centre\AM-35, Shalimar Bagh, North West, Delhi.Phone-011 27479410\http://www.delhi.gov.in/wps/wcm/connect/7c24a500424d2a1ca82efff85e11a7f2/listofpvth.pdf?MOD=AJPERES&lmod=595582321&CACHEID=7c24a500424d2a1ca82efff85e11a7f30\
Delhi\South\Kunj Eye Hospital\C-270, Sangam Vihar, South, Delhi.Phone-011 24961375\http://www.delhi.gov.in/wps/wcm/connect/7c24a500424d2a1ca82efff85e11a7f2/listofpvth.pdf?MOD=AJPERES&lmod=595582321&CACHEID=7c24a500424d2a1ca82efff85e11a7f31\
Delhi\North East\Kusum Surgical and Pediatric Hospital\E-1/1123, 4 1/2 Pusta, Sonia Vihar, North East, Delhi.Phone-011 22810223\http://www.delhi.gov.in/wps/wcm/connect/7c24a500424d2a1ca82efff85e11a7f2/listofpvth.pdf?MOD=AJPERES&lmod=595582321&CACHEID=7c24a500424d2a1ca82efff85e11a7f32\Delhi\Central\Lady Hardinge Medical College\Lady Hardinge Medical College C- 604, Shivaji Stadium Bus Terminal Connaught Place, Shaheed Bhagat Singh Marg, Central, Delhi.Phone-011 23239271, 011 23239280\http://www.lhmc.in\
Delhi\East\Lake View Nursing Home Pvt. ltd.\E-10, Pandav Nagar, East, Delhi.Phone-011 22799059\http://www.delhi.gov.in/wps/wcm/connect/7c24a500424d2a1ca82efff85e11a7f2/listofpvth.pdf?MOD=AJPERES&lmod=595582321&CACHEID=7c24a500424d2a1ca82efff85e11a7f33\
Delhi\South\Lakhotia Eye Centre and Laser Institute, Greater Kailash\E - 544, Greater Kailash- II, South, Delhi.Phone- 011 29228828, 011 29228247\http://www.drsharadlakhotia.com/\
Delhi\East\Lal Bahadur Shastri Hospital\Near Kalyanvas Colony, Khichripur-Mayur Vihar Phase II, East, Delhi.Phone-011 22774145, 011 22774146, 011 22778282, 011 22786828\http://www.Delhi.gov.in/wps/wcm/connect/doit_health/health/home/hospitals/lal+bahadur+shastri+hospital/\
Delhi\West\Lamba Clinic\27/7, Ashok Nagar, Behind P.S. Tilak Nagar, West, Delhi.Phone-011 25132121\http://lambahospital.com/\
Delhi\West\Lamba Hospital and Nursing Home\B-1/453, Janakpuri, Near DESU Office B-Block, West, Delhi.Phone-011 65458020, 011 25524849\http://lambahospital.com/\
Delhi\North West\Laxmi Nursing Home\T-19,Shama colony, Budh Vihar, Phase -II, North West, Delhi.\http://www.delhi.gov.in/wps/wcm/connect/7c24a500424d2a1ca82efff85e11a7f2/listofpvth.pdf?MOD=AJPERES&lmod=595582321&CACHEID=7c24a500424d2a1ca82efff85e11a7f34\
Delhi\South\Leekha Nursing Home\E-8, Hauz Khas, South, Delhi.Phone-011 26569203, 011 26567352\http://www.delhi.gov.in/wps/wcm/connect/7c24a500424d2a1ca82efff85e11a7f2/listofpvth.pdf?MOD=AJPERES&lmod=595582321&CACHEID=7c24a500424d2a1ca82efff85e11a7f35\
Delhi\South West\Life Care Hospital\6-A, Gurgaon Road, Najafgarh, New Roshanpura, Near Reliance Fresh, South West, Delhi.\http://www.delhi.gov.in/wps/wcm/connect/7c24a500424d2a1ca82efff85e11a7f2/listofpvth.pdf?MOD=AJPERES&lmod=595582321&CACHEID=7c24a500424d2a1ca82efff85e11a7f36\
Delhi\West\Life Line Charitable Hospital\120and 121, Defence Enclave, Mohan Garden, UttamNagar, West, Delhi.\http://www.delhi.gov.in/wps/wcm/connect/7c24a500424d2a1ca82efff85e11a7f2/listofpvth.pdf?MOD=AJPERES&lmod=595582321&CACHEID=7c24a500424d2a1ca82efff85e11a7f37\Delhi\East\Life Line Hospital\A-13, Priya darshani Vihar, East, Delhi.Phone-011 22522226, 011 22522227\http://www.delhi.gov.in/wps/wcm/connect/7c24a500424d2a1ca82efff85e11a7f2/listofpvth.pdf?MOD=AJPERES&lmod=595582321&CACHEID=7c24a500424d2a1ca82efff85e11a7f38\
Delhi\South\Life Line Medical Centre\A-458, Chirag Delhi, Near Hanuman Mandir, South, Delhi.Phone-011 47401363, 011 47401364, 011 29251018\http://www.delhi.gov.in/wps/wcm/connect/7c24a500424d2a1ca82efff85e11a7f2/listofpvth.pdf?MOD=AJPERES&lmod=595582321&CACHEID=7c24a500424d2a1ca82efff85e11a7f39\
Delhi\South West\Lifeline Hospital\42, Sector-12B, Dwarka, South West, Delhi.Phone-011 28031100, 011 28034400, 011 47324100\http://lifelinehospitaldwarka.com/\
Delhi\South\Lions Hospital and Research Center\District 321-A, Village Khizrabad, New Friends Colony, South, Delhi.Phone-011 26831265, 011 26833879\http://www.delhi.gov.in/wps/wcm/connect/7c24a500424d2a1ca82efff85e11a7f2/listofpvth.pdf?MOD=AJPERES&lmod=595582321&CACHEID=7c24a500424d2a1ca82efff85e11a7f40\
Delhi\South\Lions Kidney Hospital and Urology Research Institute\Khizarabad Bhagol, Opp. 'B' Block, New Friends Colony, South, Delhi.\http://lionskidneyhospital.org/\
Delhi\South\Livana IVF Centre PVT.LTD\65/10, New Rohtak Road, South, Delhi.Phone-011 23511474, 011 41660255\http://www.delhi.gov.in/wps/wcm/connect/7c24a500424d2a1ca82efff85e11a7f2/listofpvth.pdf?MOD=AJPERES&lmod=595582321&CACHEID=7c24a500424d2a1ca82efff85e11a7f41\
Delhi\Central\Lok Nayak Hospital\Jawahar Lal Nehru Marg, Central, Delhi.Phone-011 23236000, 011 23232400, 011 23233400\http://Delhi.gov.in/wps/wcm/connect/doit_lnjp/LNJP/Home\
Delhi\East\Lokpriya Nursing Home\A-133 Vivek Vihar II, Jhilmil Colony, East, Delhi.Phone-011 22158280\http://www.delhi.gov.in/wps/wcm/connect/7c24a500424d2a1ca82efff85e11a7f2/listofpvth.pdf?MOD=AJPERES&lmod=595582321&CACHEID=7c24a500424d2a1ca82efff85e11a7f41\
Delhi\South\Lotus Eye Clinic\A48 A/J, Naraina Vihar, South, Delhi.\http://www.delhi.gov.in/wps/wcm/connect/7c24a500424d2a1ca82efff85e11a7f2/listofpvth.pdf?MOD=AJPERES&lmod=595582321&CACHEID=7c24a500424d2a1ca82efff85e11a7f41\
Delhi\North\Lotus Hospital, Burari\Dr. Tyagi Complex, Gali No 23, West Sant Nagar, Burari, Kotwali, North, Delhi.Phone-011 64551508\http://www.delhi.gov.in/wps/wcm/connect/7c24a500424d2a1ca82efff85e11a7f2/listofpvth.pdf?MOD=AJPERES&lmod=595582321&CACHEID=7c24a500424d2a1ca82efff85e11a7f41\Delhi\West\Lotus Hospital, Hari Nagar\WZ-409-A, Janak Park, Hari Nagar, West, Delhi.Phone-011 45615771, 011 45615772, 011 45615773, 011 45615774, 011 45615775, 011 45615776\http://lotushospital.weebly.com/\
Delhi\North East\Luv Kush Hospital for Surgery\Main Road, Karawal Nagar, North East, Delhi.Phone-011 22175226, 011 22933548\http://www.delhi.gov.in/wps/wcm/connect/7c24a500424d2a1ca82efff85e11a7f2/listofpvth.pdf?MOD=AJPERES&lmod=595582321&CACHEID=7c24a500424d2a1ca82efff85e11a7f41\
Delhi\West\M G S Hospital\Rohtak Road, West Punjabi Bagh, West, Delhi.Phone-011 25226100, 011 25220131\http://mgshospital.com/\
Delhi\South\M M Eyetech Institute\Clinic and Diagnostic Center,29, Link Road, Lajpat Nagar - III, South, Delhi.Phone-011 29847800,011 29847900\http://www.mmeyetech.com/\
Delhi\East\M M R Eye Institute\B-15, Vikas Marg, Swasthya Vihar, East, Delhi.Phone-011 22548667, 011 2254 2267\http://www.delhi.gov.in/wps/wcm/connect/7c24a500424d2a1ca82efff85e11a7f2/listofpvth.pdf?MOD=AJPERES&lmod=595582321&CACHEID=7c24a500424d2a1ca82efff85e11a7f41\
Delhi\South\M P Heart Centre\W-33, Greater Kailash, South, Delhi.Phone-011 29234830\http://www.delhi.gov.in/wps/wcm/connect/7c24a500424d2a1ca82efff85e11a7f2/listofpvth.pdf?MOD=AJPERES&lmod=595582321&CACHEID=7c24a500424d2a1ca82efff85e11a7f41\
Delhi\New Delhi\M P Heart Institute\Dr. Umesh Gupta, W-33, Greater Kailash-1, New Delhi, Delhi.Phone-011 29234830\http://drumeshgupta.com/\
Delhi\South\M.D.Eye Careand Laser Care\M-165, Greater kailash, Part- II(G.F.), South, Delhi.Phone-011 29338101, 011 29228102\http://www.delhi.gov.in/wps/wcm/connect/7c24a500424d2a1ca82efff85e11a7f2/listofpvth.pdf?MOD=AJPERES&lmod=595582321&CACHEID=7c24a500424d2a1ca82efff85e11a7f41\
Delhi\West\M.K.W Hospital\J-12, J-Block, Community Centre, Rajouri Garden, West, Delhi.Phone-011 45609999, 011 25171745\http://www.mkwhospital.com\
Delhi\West\M.R.Hospitaland Orthopedic Centre\C-1/3/4, Rama Park, Main Najafgarh Road Uttam Nagar, West, Delhi.Phone-011 25351008\http://www.delhi.gov.in/wps/wcm/connect/7c24a500424d2a1ca82efff85e11a7f2/listofpvth.pdf?MOD=AJPERES&lmod=595582321&CACHEID=7c24a500424d2a1ca82efff85e11a7f42\Delhi\South\Madaan Dental Care Centre\K-35 B, Lajpat Nagar - II, South, Delhi.Phone-011 29835771, 011 46579698\http://www.madandentalcare.com/\
Delhi\North East\Madina Charitable Hospital\Plot No 2042, Street No 21-22, Main 25 Feet Road, Mustafabad, North East, Delhi.\http://www.delhi.gov.in/wps/wcm/connect/7c24a500424d2a1ca82efff85e11a7f2/listofpvth.pdf?MOD=AJPERES&lmod=595582321&CACHEID=7c24a500424d2a1ca82efff85e11a7f43\
Delhi\West\Magadh Nursing Home\D-6, Mahavir Enclave, Part-III, West, Delhi.Phone-011 25633155\http://www.delhi.gov.in/wps/wcm/connect/7c24a500424d2a1ca82efff85e11a7f2/listofpvth.pdf?MOD=AJPERES&lmod=595582321&CACHEID=7c24a500424d2a1ca82efff85e11a7f44\
Delhi\West\Mahajan Children Hospital and Nursing Home\I-50&51, Arya Samaj Road, Uttam Nagar, West, Delhi.Phone-011 25639860, 011 25637350, 011 45785608, 011 45680102\http://www.delhi.gov.in/wps/wcm/connect/7c24a500424d2a1ca82efff85e11a7f2/listofpvth.pdf?MOD=AJPERES&lmod=595582321&CACHEID=7c24a500424d2a1ca82efff85e11a7f45\
Delhi\North West\Mahajan Eye Centre\21-A, AD Block, PitampuraOuter Ring Road,Near Madhuban Chowk, North West, Delhi.Phone-011 27314660\http://www.mahajaneyecentre.com/\
Delhi\North West\Mahajan Hospital\A-5, Swarn Singh Road, Adarsh Nagar, North West, Delhi.Phone-011 27677777, 011 27679181\http://www.delhi.gov.in/wps/wcm/connect/7c24a500424d2a1ca82efff85e11a7f2/listofpvth.pdf?MOD=AJPERES&lmod=595582321&CACHEID=7c24a500424d2a1ca82efff85e11a7f45\
Delhi\North East\Mahalaxmi Hospital\1449, P-8, 100 feet Road, MTNL,Opposite Durga Puri, North East, Delhi.Phone-011 22299416, 011 22270744\http://www.delhi.gov.in/wps/wcm/connect/7c24a500424d2a1ca82efff85e11a7f2/listofpvth.pdf?MOD=AJPERES&lmod=595582321&CACHEID=7c24a500424d2a1ca82efff85e11a7f45\
Delhi\West\Mahanvir Nursing Home\49B/41, Punjabi Bagh, West, Delhi.Phone-011 25227274, 011 25224239\http://www.delhi.gov.in/wps/wcm/connect/7c24a500424d2a1ca82efff85e11a7f2/listofpvth.pdf?MOD=AJPERES&lmod=595582321&CACHEID=7c24a500424d2a1ca82efff85e11a7f45\
Delhi\North West\Maharaja Agarsain Hospital\D-Block, Ashok Vihar, Phase 1, North West, Delhi.Phone-011 27425036, 011 27425038\http://www.delhi.gov.in/wps/wcm/connect/7c24a500424d2a1ca82efff85e11a7f2/listofpvth.pdf?MOD=AJPERES&lmod=595582321&CACHEID=7c24a500424d2a1ca82efff85e11a7f45\
Delhi\West\Maharaja Aggarsain Hospital\Road No. 35, Punjabi Bagh, West, Delhi.Phone-011 25226645, 011 25226654, 011 40777777, 011 40777555, 011 40777666\http://www.mahdelhi.org/\Delhi\West\Maharaja Agrasen Hospital\West Punjabi Bagh, West, Delhi.Phone-011 40777555,011 40777666,011 40777777\http://www.mahdelhi.org\
Delhi\West\Maharashi Ayurveda Hospital\BP - Block, Shalimar Bagh, West, Delhi.Phone-011 27479501, 011 27479502, 011 27479503\http://maharishiayurvedaindia.org/\
Delhi\North West\Maharishi Balmiki Hospital\Ground Floor, Pooth Khurd, North West, Delhi.Phone-011 27761524, 011 27761525\http://www.mbh.Delhigovt.nic.in/\
Delhi\West\Mahendru Hospital\E-1, Kiran Garden, Main Najafgarh Road, Opposite Metro Pillar No.712, Uttam Nagar,, West, Delhi.Phone-011 25333500, 011 25343500\http://www.mahindruhospital.com/\
Delhi\East\Mahesh Hospital\Patpar Ganj Society Complex, Near Engineer Estate (Petrol Pump), D-437, West Vinod Nagar, IP Extension, East, Delhi.Phone-011 22471145, 011 22471525\http://www.maheshhospital.co.in\
Delhi\North West\Maheshwari Hospital\F-1U-41, Pitampura, North West, Delhi.Phone-011 27341460, 011 27341353\http://www.maheshwarihospital.com/\
Delhi\West\Mahindru Hospital\E-1, Kiran Garden, Main Najafgarh Road, Opp. Metro Pillar No.712, Uttam Nagar, West, Delhi.Phone-011 25333500, 011 25343500\http://mahindruhospital.com/\
Delhi\West\Mai Kamli Wali Charitable Hospital\Plot No: 12, J-Block, Community Centre, Rajouri Garden, West, Delhi.Phone-011 45609999, 011 25171745\http://mkwhospital.com/\
Delhi\South\Makkah Eye Hospital\Block Number D 247 And 248, Abul Fazal Enclave, Hari Kothi Road, Jamia Nagar, South, Delhi.Phone-011 26989192, 011 26989193, 011 26983894\http://www.delhi.gov.in/wps/wcm/connect/7c24a500424d2a1ca82efff85e11a7f2/listofpvth.pdf?MOD=AJPERES&lmod=595582321&CACHEID=7c24a500424d2a1ca82efff85e11a7f45\
Delhi\East\Makkar Medical Centre\A 1, 2, Laxmi Nagar, Near Radhu Palace Cinema, Priyadarshini Vihar, East, Delhi.Phone-011 22462221, 011 22466992\http://www.delhi.gov.in/wps/wcm/connect/7c24a500424d2a1ca82efff85e11a7f2/listofpvth.pdf?MOD=AJPERES&lmod=595582321&CACHEID=7c24a500424d2a1ca82efff85e11a7f46\Delhi\East\Malhotra Nursing Home (Surgical Centre)\A-209, Pocket-B, Mayur Vihar Phase 2, East, Delhi.Phone-011 22775520, 011 43052163\http://www.delhi.gov.in/wps/wcm/connect/7c24a500424d2a1ca82efff85e11a7f2/listofpvth.pdf?MOD=AJPERES&lmod=595582321&CACHEID=7c24a500424d2a1ca82efff85e11a7f47\
Delhi\West\Malik Hospital\6, Avtar Envlave, Paschim Vihar, West, Delhi.Phone-011 30910603, 011 64636664, 011 45576282\http://www.delhi.gov.in/wps/wcm/connect/7c24a500424d2a1ca82efff85e11a7f2/listofpvth.pdf?MOD=AJPERES&lmod=595582321&CACHEID=7c24a500424d2a1ca82efff85e11a7f48\
Delhi\West\Malik Maternity Home and Surgical Centre\RZ-41,Near Krishana Mandir, Najafgarh, West, Delhi.Phone-011 28012102, 011 25324692\http://www.delhi.gov.in/wps/wcm/connect/7c24a500424d2a1ca82efff85e11a7f2/listofpvth.pdf?MOD=AJPERES&lmod=595582321&CACHEID=7c24a500424d2a1ca82efff85e11a7f49\
Delhi\East\Malik Nursing Home\B-1297-98, Gharoli Dairy Farm, Mayur Vihar -III, East, Delhi.Phone-011 226106440\http://www.delhi.gov.in/wps/wcm/connect/7c24a500424d2a1ca82efff85e11a7f2/listofpvth.pdf?MOD=AJPERES&lmod=595582321&CACHEID=7c24a500424d2a1ca82efff85e11a7f50\
Delhi\New Delhi\Malik Radix Clinic\C-217, Nirman Vihar, New Delhi, Delhi.Phone-011 22520249, 011 22508272, 011 22025531\http://www.malikradixhealthcare.com/\
Delhi\East\Malik Radix Health Care\C-218, Nirman Vihar, East, Delhi.Phone- 011 22011192, 011 22011196, 011 22011208\http://www.malikradixhealthcare.com\
Delhi\New Delhi\Malik Radix Hospital\C-218, Nirman Vihar, New Delhi, Delhi.Phone-011 22011192, 011 22011196, 011 22011208\http://www.malikradixhealthcare.com/\
Delhi\North East\Mamta Medicare Centre\C- 9/12, Main Maujpur Road, Yamuna Vihar, North East, Delhi.Phone-011 22915570, 011 22912091\http://www.delhi.gov.in/wps/wcm/connect/7c24a500424d2a1ca82efff85e11a7f2/listofpvth.pdf?MOD=AJPERES&lmod=595582321&CACHEID=7c24a500424d2a1ca82efff85e11a7f51\
Delhi\North East\Mamta Nursing Home\C-3/25, C-3 Block, Yamuna Vihar, North East, Delhi.\http://www.delhi.gov.in/wps/wcm/connect/7c24a500424d2a1ca82efff85e11a7f2/listofpvth.pdf?MOD=AJPERES&lmod=595582321&CACHEID=7c24a500424d2a1ca82efff85e11a7f52\
Delhi\North West\Manasvi Maternity Centre\D-5/18, Manav Chowk Road, Rohini, Sector - 15, North West, Delhi.Phone-011 27890007\http://www.delhi.gov.in/wps/wcm/connect/7c24a500424d2a1ca82efff85e11a7f2/listofpvth.pdf?MOD=AJPERES&lmod=595582321&CACHEID=7c24a500424d2a1ca82efff85e11a7f53\Delhi\South\Manav Medicare Centre\E-11, South Extension Part-I, South, Delhi.Phone-011 4615909, 011 4690655, 011 4640017\http://www.manavmedicare.com/\
Delhi\South\Manchanda Polyclinic\A-240, Main Road, Chhatarpur, South, Delhi.\http://www.delhi.gov.in/wps/wcm/connect/7c24a500424d2a1ca82efff85e11a7f2/listofpvth.pdf?MOD=AJPERES&lmod=595582321&CACHEID=7c24a500424d2a1ca82efff85e11a7f54\
Delhi\South\Manchanda's Endoscopic Center\A-32, New Friends Colony, South, Delhi.Phone-011 26847123\http://www.gynaeendoscopy.com/\
Delhi\West\Mangla Agarwal Medical Centre Pvt. Ltd.\C-127, Ganesh Nagar, Tilak Nagar, West, Delhi.Phone-011 25999393, 011 25994676\http://www.delhi.gov.in/wps/wcm/connect/7c24a500424d2a1ca82efff85e11a7f2/listofpvth.pdf?MOD=AJPERES&lmod=595582321&CACHEID=7c24a500424d2a1ca82efff85e11a7f55\
Delhi\North\Mangla Nursing Home\151 Main Road, Brahmpuri, North, Delhi.Phone-011 22910555, 011 22185391\http://www.delhi.gov.in/wps/wcm/connect/7c24a500424d2a1ca82efff85e11a7f2/listofpvth.pdf?MOD=AJPERES&lmod=595582321&CACHEID=7c24a500424d2a1ca82efff85e11a7f56\
Delhi\East\Manglam Hospital\B-42 West Vinod Nagar, East, Delhi.Phone-011 65480088,011 22476135\http://www.manglamhospital.com/\
Delhi\North West\Manglam Medical and Surgical Centre\154/81,Main Bawana Road, Pooth Khurd, North West, Delhi.Phone-011 27762135\http://www.mangalamhospital.in/\
Delhi\North East\Manglam Medical Centre\E-131, Dilshad Colony, North East, Delhi.Phone-011 22575486\http://www.delhi.gov.in/wps/wcm/connect/7c24a500424d2a1ca82efff85e11a7f2/listofpvth.pdf?MOD=AJPERES&lmod=595582321&CACHEID=7c24a500424d2a1ca82efff85e11a7f56\
Delhi\South\Manjula Nursing Home\514, Gali No. 37, Zakir Nagar, Okhla, South, Delhi.Phone-011 26987371\http://www.delhi.gov.in/wps/wcm/connect/7c24a500424d2a1ca82efff85e11a7f2/listofpvth.pdf?MOD=AJPERES&lmod=595582321&CACHEID=7c24a500424d2a1ca82efff85e11a7f56\
Delhi\North West\Manna Clinic and Maternity Home\WZ-1367, Rani Bagh, Shakur Basti, North West, Delhi.Phone-011 7025259\http://www.mannaclinic.com/\Delhi\North\Arihant Eye Centre\Shop No. 4, Burari, North, Delhi.Phone-011 27613650\http://www.delhi.gov.in/wps/wcm/connect/7c24a500424d2a1ca82efff85e11a7f2/listofpvth.pdf?MOD=AJPERES&lmod=595582321&CACHEID=7c24a500424d2a1ca82efff85e11a7f26\
Delhi\South\AristonMultispecialityHospital\I-1690, ChitranjanPark, South, Delhi.Phone-011 4172245\http://www.delhi.gov.in/wps/wcm/connect/7c24a500424d2a1ca82efff85e11a7f2/listofpvth.pdf?MOD=AJPERES&lmod=595582321&CACHEID=7c24a500424d2a1ca82efff85e11a7f27\
Delhi\West\Arjun Hospital\17/91, SubhashNagar, West, Delhi.Phone-011 25738664011 25134682\http://www.delhi.gov.in/wps/wcm/connect/7c24a500424d2a1ca82efff85e11a7f2/listofpvth.pdf?MOD=AJPERES&lmod=595582321&CACHEID=7c24a500424d2a1ca82efff85e11a7f28\
Delhi\South West\Army College of Medical Sciences\Army College of medical sciences, Near Base Hospital, Delhi Cantt, South West, Delhi.Phone-011 25687642,011 25687644, 011 25687645\http://www.theacms.in\
Delhi\North West\Arora NursingHome\BE-1,ShalimarBagh, North West, Delhi.Phone-011 27488756\http://www.delhi.gov.in/wps/wcm/connect/7c24a500424d2a1ca82efff85e11a7f2/listofpvth.pdf?MOD=AJPERES&lmod=595582321&CACHEID=7c24a500424d2a1ca82efff85e11a7f29\
Delhi\South West\Artemis\Plot No14, Sector20, Dwarka, South West, Delhi.Phone-011 6767999\http://www.delhi.gov.in/wps/wcm/connect/7c24a500424d2a1ca82efff85e11a7f2/listofpvth.pdf?MOD=AJPERES&lmod=595582321&CACHEID=7c24a500424d2a1ca82efff85e11a7f30\
Delhi\North West\Arun CharitableMemorial Hospital\B-468, Rajiv Nagar, Begumpur, North West, Delhi.\http://www.delhi.gov.in/wps/wcm/connect/7c24a500424d2a1ca82efff85e11a7f2/listofpvth.pdf?MOD=AJPERES&lmod=595582321&CACHEID=7c24a500424d2a1ca82efff85e11a7f31\
Delhi\North\Aruna Asaf Ali Government Hospital\5, Rajpur Road, Civil Lines, North, Delhi.Phone-011 23965532, 011 23831524\http://Delhi.gov.in/wps/wcm/connect/DOIT_Aruna/aruna_hospital/home\
Delhi\West\Arya Hospital\C-1/101, PankhaRoad, Janakpuri, West, Delhi.Phone-011 41574208,011 41574209\http://www.delhi.gov.in/wps/wcm/connect/7c24a500424d2a1ca82efff85e11a7f2/listofpvth.pdf?MOD=AJPERES&lmod=595582321&CACHEID=7c24a500424d2a1ca82efff85e11a7f32\
Delhi\North West\Aryan Hospital\Ch. Chhaju RamMarket, VijayNagar, Bawana , North West, Delhi.Phone-011 27753805\http://www.delhi.gov.in/wps/wcm/connect/7c24a500424d2a1ca82efff85e11a7f2/listofpvth.pdf?MOD=AJPERES&lmod=595582321&CACHEID=7c24a500424d2a1ca82efff85e11a7f33\